name,country,region,wmo,icao,latitude,longitude,elevation,timezone,hourly_start,hourly_end,daily_start,daily_end,monthly_start,monthly_end,state
Post Rogers Memorial Airport,US,AK,70026,PABR,71.2833,-156.7667,13.0,America/Juneau,1945-01-01,2023-11-04,1901-09-01,2023-10-30,1901-01-01,2022-01-01,AK
Wainwright Airport,US,AK,70030,PAWI,70.6333,-160.0333,9.0,America/Nome,2005-01-01,2023-10-16,1935-09-20,2023-10-15,1935-01-01,2022-01-01,AK
Barter Island Airport,US,AK,70086,PABA,70.1333,-143.5667,2.0,America/Juneau,1947-10-01,2023-11-04,1947-09-23,2023-10-19,1947-01-01,2022-01-01,AK
Cape Lisburne Airport,US,AK,70104,PALU,68.8833,-166.1,4.0,America/Nome,2006-01-01,2023-11-04,1953-04-01,2022-04-25,1953-01-01,2022-01-01,AK
Wales,US,AK,70116,PAIW,65.6167,-168.05,9.0,America/Juneau,2009-01-22,2023-11-04,1925-10-10,2022-04-25,1925-01-01,2021-01-01,AK
Tin City,US,AK,70117,PATC,65.5667,-167.9167,83.0,America/Juneau,2006-01-01,2023-11-04,1953-07-01,2022-04-25,1954-01-01,2022-01-01,AK
Wien Memorial Airport,US,AK,70133,PAOT,66.8833,-162.6,3.0,America/Nome,1973-01-01,2023-11-04,1897-09-12,2023-10-30,1897-01-01,2022-01-01,AK
Utopia Creek Airport,US,AK,70173,PAIM,66.9833,-153.7,372.0,America/Juneau,2005-01-01,2023-11-04,1951-11-20,2022-04-24,1951-01-01,2021-01-01,AK
Bettles Airport,US,AK,70174,PABT,66.9,-151.5167,196.0,America/Juneau,1945-01-01,2023-11-04,1945-01-01,2023-10-31,1945-01-01,2022-01-01,AK
Tanana Calhoun Memorial Airport,US,AK,70178,PATA,65.1667,-152.1,72.0,America/Juneau,1943-06-01,2023-11-04,1901-08-24,2023-10-28,1901-01-01,2022-01-01,AK
Fort Yukon Airport,US,AK,70194,PFYU,66.5667,-145.2667,433.0,America/Juneau,1973-01-01,2023-11-04,1899-01-01,2022-04-24,1899-01-01,2022-01-01,AK
Nome Airport,US,AK,70200,PAOM,64.5167,-165.4333,11.0,America/Juneau,1940-01-01,2023-11-04,1900-08-13,2023-10-30,1900-01-01,2022-01-01,AK
"Gambell, Gambell Airport",US,AK,70204,PAGM,63.7667,-171.7333,8.0,America/Juneau,1987-06-03,2023-11-03,1990-09-01,2021-11-02,2011-01-01,2021-01-01,AK
Unalakleet,US,AK,70207,PAUN,63.8833,-160.8,6.0,America/Juneau,1943-06-01,2023-11-04,1941-09-01,2022-04-24,1941-01-01,2022-01-01,AK
Cape Romanzof Airport,US,AK,70212,PACZ,61.7833,-166.0333,139.0,America/Juneau,1953-04-01,2023-11-04,1953-07-01,2022-04-25,1953-01-01,2022-01-01,AK
Bethel Airport,US,AK,70219,PABE,60.7833,-161.8333,37.0,America/Juneau,1945-01-01,2023-11-04,1923-08-01,2023-10-30,1923-01-01,2022-01-01,AK
Galena Airport,US,AK,70222,PAGA,64.7333,-156.9333,46.0,America/Nome,2006-01-01,2023-10-19,1953-06-01,2023-03-19,1953-01-01,2021-01-01,AK
McGrath Airport,US,AK,70231,PAMC,62.95,-155.6,103.0,America/Juneau,1973-01-01,2023-11-04,1939-04-01,2023-10-30,1939-01-01,2021-01-01,AK
Aniak Airport,US,AK,70232,PANI,61.5667,-159.5333,27.0,America/Juneau,1973-01-01,2023-11-04,1920-08-01,2022-04-24,1920-01-01,2022-01-01,AK
Sparrevohn,US,AK,70235,PASV,61.1,-155.5667,484.0,America/Juneau,2006-01-01,2023-11-04,1951-07-25,2022-04-24,1951-01-01,2021-01-01,AK
Minchumina Airport,US,AK,70246,PAMH,63.8667,-152.3,208.0,America/Juneau,1973-01-01,2023-11-04,1945-01-01,2023-08-31,1945-01-01,2022-01-01,AK
Puntilla,US,AK,70249,PAPT,62.1,-152.75,560.0,America/Juneau,2006-01-01,2023-11-04,1942-01-01,2023-10-27,1942-01-01,2022-01-01,AK
Talkeetna Airport,US,AK,70251,PATK,62.3167,-150.1,109.0,America/Juneau,1973-01-01,2023-11-04,1918-06-18,2023-10-28,1918-01-01,2022-01-01,AK
Kenai Municipal Airport,US,AK,70259,PAEN,60.5833,-151.2333,28.0,America/Juneau,1973-01-01,2023-11-04,1899-05-01,2023-10-28,1899-01-01,2022-01-01,AK
Nenana Municipal Airport,US,AK,70260,PANN,64.55,-149.0667,110.0,America/Juneau,1943-07-06,2023-11-03,1916-12-01,2023-10-27,1916-01-01,2022-01-01,AK
Fairbanks Airport,US,AK,70261,PAFA,64.8,-147.8667,132.0,America/Juneau,1946-01-01,2023-11-04,1929-12-01,2023-10-30,1929-01-01,2022-01-01,AK
Fairbanks Air Force Base,US,AK,70265,PAEI,64.65,-147.1,167.0,America/Juneau,2006-01-02,2023-11-04,1949-01-01,2022-04-24,1949-01-01,2022-01-01,AK
Allen Army Airfield,US,AK,70267,PABI,64.0,-145.7167,389.0,America/Juneau,1945-10-15,2023-11-04,1917-06-01,2023-10-28,1917-01-01,2022-01-01,AK
Gulkana Airport,US,AK,70271,PAGK,62.15,-145.45,481.0,America/Juneau,1945-01-01,2023-11-04,1907-03-02,2023-10-04,1909-01-01,2021-01-01,AK
Anchorage Air Force Base,US,AK,70272,PAED,61.25,-149.7833,65.0,America/Juneau,2006-01-01,2023-11-04,1947-01-14,2022-04-23,1949-01-01,2022-01-01,AK
Anchorage Ted Stevens Airport,US,AK,70273,PANC,61.1667,-150.0333,44.0,America/Juneau,1973-01-01,2023-11-04,1952-04-01,2023-10-30,1951-01-01,2022-01-01,AK
Palmer Municipal Airport,US,AK,70274,PAAQ,61.6,-149.1,76.0,America/Juneau,1999-01-01,2023-11-04,1997-10-01,2023-10-28,1997-01-01,2022-01-01,AK
Seward,US,AK,70277,PAWD,60.1167,-149.45,9.0,America/Juneau,2006-01-01,2023-11-04,1908-02-01,2023-10-28,1908-01-01,2022-01-01,AK
Northway Airport,US,AK,70291,PAOR,62.9667,141.9333,523.0,America/Juneau,1945-01-01,2023-11-04,1942-09-08,2023-10-28,1942-01-01,2022-01-01,AK
Merle K. Smith Airport,US,AK,70296,PACV,60.5,-145.4833,13.0,America/Juneau,1942-06-11,2023-11-04,1909-05-05,2023-10-28,1909-01-01,2022-01-01,AK
Cape Newenham Airport,US,AK,70305,PAEH,58.65,-162.0667,165.0,America/Juneau,2006-01-01,2023-11-04,1953-07-26,2022-04-24,1953-01-01,2022-01-01,AK
St Paul Island Airport,US,AK,70308,PASN,57.1667,-170.2167,19.0,America/Adak,1943-11-05,2023-11-04,1915-08-08,2023-10-30,1915-01-01,2022-01-01,AK
Cold Bay Airport,US,AK,70316,PACD,55.2167,-162.7333,30.0,America/Juneau,1942-03-04,2023-11-04,1942-03-25,2023-10-31,1942-01-01,2022-01-01,AK
Dillingham Airport,US,AK,70321,PADL,59.05,-158.5167,26.0,America/Juneau,2006-01-01,2023-11-04,1919-02-01,2022-04-24,1919-01-01,2021-01-01,AK
King Salmon Airport,US,AK,70326,PAKN,58.6833,-156.65,17.0,America/Juneau,1942-01-10,2023-11-04,1942-01-12,2023-10-30,1942-01-01,2022-01-01,AK
Port Heiden Airport,US,AK,70333,PAPH,56.95,-158.6333,29.0,America/Juneau,2006-01-01,2023-11-04,1942-09-01,2022-04-24,1942-01-01,2022-01-01,AK
Iliamna Airport,US,AK,70340,PAIL,59.75,-154.9167,63.0,America/Juneau,1973-01-01,2023-11-04,1920-02-11,2023-10-04,1920-01-01,2021-01-01,AK
Homer / Municipal,US,AK,70341,PAHD,59.6333,-151.5,24.0,America/Juneau,1973-01-01,2023-09-03,1932-09-01,2023-10-28,1932-01-01,2022-01-01,AK
Middleton Island Airport,US,AK,70343,PAMD,59.4333,-146.3,27.0,America/Anchorage,1945-01-01,2023-11-04,1942-12-01,2022-04-25,1942-01-01,2022-01-01,AK
Kodiak Airport,US,AK,70350,PADQ,57.75,-152.4833,22.0,America/Juneau,1945-01-01,2023-11-04,1945-01-01,2023-10-31,1945-01-01,2022-01-01,AK
Yakutat Airport,US,AK,70361,PAYA,59.5,-139.6667,10.0,America/Juneau,1941-05-01,2023-11-04,1917-04-01,2023-10-30,1917-01-01,2022-01-01,AK
Skagway Airport,US,AK,70362,PAGY,59.4667,-135.3167,13.0,America/Juneau,1943-10-01,2023-11-04,1898-11-01,2023-10-30,1898-01-01,2022-01-01,AK
"Gustavus, Gustavus Airport",US,AK,70367,PAGS,58.4167,-135.7,10.0,America/Juneau,1976-08-01,2023-11-04,1923-04-01,2023-10-31,1923-01-01,2022-01-01,AK
Sitka Airport,US,AK,70371,PASI,57.05,-135.3667,6.0,America/Juneau,1973-01-01,2023-11-04,1944-09-01,2023-10-30,1944-01-01,2022-01-01,AK
Juneau International Airport,US,AK,70381,PAJN,58.35,-134.5667,6.0,America/Juneau,1973-01-01,2023-11-04,1936-09-01,2023-10-30,1936-01-01,2022-01-01,AK
Angoon,US,AK,70383,PAGN,57.5,-134.5833,0.0,America/Juneau,1973-01-01,2023-11-04,1932-04-01,2022-04-25,1932-01-01,2016-01-01,AK
Petersburg,US,AK,70386,PAPG,56.8167,-132.9667,0.0,America/Juneau,1973-01-01,2023-11-04,1924-05-01,2023-10-28,1924-01-01,2022-01-01,AK
Wrangell,US,AK,70387,PAWG,56.4833,-132.3667,13.0,America/Juneau,2006-01-01,2023-11-04,1917-11-02,2023-10-28,1917-01-01,2017-01-01,AK
Ketchikan International Airport,US,AK,70395,PAKT,55.35,-131.7167,27.0,America/Juneau,1973-01-01,2023-11-04,1910-09-01,2023-10-30,1910-01-01,2022-01-01,AK
Annette Island Airport,US,AK,70398,PANT,55.0333,-131.5833,36.0,America/Juneau,1941-07-14,2019-10-01,1941-01-16,2019-10-01,1941-01-01,2019-01-01,AK
Shemya Eareckson As,US,AK,70414,PASY,52.7167,174.1167,30.0,America/Adak,2005-01-01,2023-11-04,1943-07-01,2022-04-20,1943-01-01,2020-01-01,AK
Adak Island Airport,US,AK,70454,PADK,51.8667,-176.6333,6.0,America/Adak,1942-10-30,2023-11-04,1942-10-01,2023-10-28,1942-01-01,2022-01-01,AK
Nikolai,US,AK,,PAFS,54.2553,-133.0583,41.0,America/Juneau,2006-10-24,2023-11-04,1992-11-01,2023-10-31,1992-01-01,2021-01-01,AK
Haines / Gantegastaki (Historical),US,AK,,PAHN,59.2438,-135.5235,5.0,America/Juneau,1996-06-13,2023-11-04,1998-06-06,2022-03-20,1999-01-01,2021-01-01,AK
False Pass,US,AK,,PAKF,54.8474,-163.4103,6.0,America/Juneau,1973-01-01,2023-10-13,1992-08-31,2022-04-24,2021-01-01,2022-01-01,AK
Deadhorse,US,AK,,PASC,70.1947,-148.4652,20.0,America/Juneau,1973-01-01,2023-11-04,1978-06-30,2022-04-24,1999-01-01,2021-01-01,AK
Mobile Regional Airport,US,AL,72223,KMOB,30.6833,-88.0667,66.0,America/Chicago,1973-01-01,2023-11-04,1948-01-01,2023-10-31,1948-01-01,2022-01-01,AL
Montgomery Dannelly Field,US,AL,72226,KMGM,32.3,-86.0667,67.0,America/Chicago,1973-01-01,2023-11-04,1948-01-01,2023-10-31,1948-01-01,2022-01-01,AL
Birmingham Airport,US,AL,72228,KBHM,33.5667,-86.75,196.0,America/Chicago,1942-08-01,2023-11-04,1930-01-01,2023-10-31,1930-01-01,2022-01-01,AL
Centreville,US,AL,72229,KCKL,32.9,-87.25,140.0,America/Chicago,1984-01-01,2005-10-07,1974-12-01,2020-12-16,1974-01-01,2014-01-01,AL
"Shelby Country Airport, Al.",US,AL,72230,KBMX,33.1667,-86.7667,178.0,America/Chicago,,,1995-04-01,2023-10-31,1995-01-01,2022-01-01,AL
Huntsville International  Jones Field,US,AL,72323,KHSV,34.65,-86.7833,192.0,America/Chicago,1973-01-01,2023-11-04,1958-09-01,2023-10-31,1958-01-01,2022-01-01,AL
Anniston / House (Historical),US,AL,,KANB,33.5882,-85.8581,187.0,America/Chicago,1973-01-01,2023-11-04,1973-01-01,2022-04-24,1999-01-01,2022-01-01,AL
Mobile / Curve Mobile Home Park,US,AL,,KBFM,30.6268,-88.0681,8.0,America/Chicago,1942-07-01,2023-11-04,1942-07-02,2022-04-24,1942-01-01,2022-01-01,AL
Muscle Shoals / Detroit Park,US,AL,,KMSL,34.7453,-87.6102,168.0,America/Chicago,1973-01-01,2023-11-04,1973-01-01,2022-04-24,1999-01-01,2021-01-01,AL
Montgomery / Brickdale Estates,US,AL,,KMXF,32.3792,-86.3625,52.0,America/Chicago,1935-10-01,2023-11-04,1937-01-05,2022-04-24,1937-01-01,2021-01-01,AL
Fort Rucker / Ft Rucker / Ozark / Daleville,US,AL,,KOZR,31.2758,-85.7134,92.0,America/Chicago,1954-10-19,2023-11-04,1954-10-23,2022-04-24,1954-01-01,2022-01-01,AL
Selma / Selmont-West Selmont,US,AL,,KSEM,32.3439,-86.9878,51.0,America/Chicago,1941-07-01,2023-11-04,1941-11-02,2022-04-24,1942-01-01,2022-01-01,AL
Tuscaloosa / Carter Subdivision,US,AL,,KTCL,33.2206,-87.6114,52.0,America/Chicago,1973-01-01,2023-11-04,1973-01-02,2022-04-24,1999-01-01,2021-01-01,AL
"North Little Rock, North Little Rock Airport",US,AR,72340,KLZK,34.8333,-92.25,165.0,America/Chicago,2006-01-01,2021-10-29,1976-11-01,2023-10-31,1951-01-01,2022-01-01,AR
Fort Smith Regional Airport,US,AR,72344,KFSM,35.3333,-94.0333,143.0,America/Chicago,1947-01-01,2023-11-04,1945-09-27,2023-10-31,1945-01-01,2022-01-01,AR
Harrison / Francis,US,AR,72345,KHRO,36.2615,-93.1547,416.0,America/Chicago,1946-08-01,2023-11-04,1946-08-02,2023-10-31,1946-01-01,2022-01-01,AR
El Dorado / Cairo,US,AR,,KELD,33.221,-92.8133,84.0,America/Chicago,1973-01-01,2023-11-04,1973-01-01,2022-04-22,1977-01-01,2021-01-01,AR
Fayetteville / Greenland,US,AR,,KFYV,36.0051,-94.1701,382.0,America/Chicago,1973-01-01,2023-11-04,1973-01-01,2022-04-24,1974-01-01,2021-01-01,AR
Little Rock / Jacksonville / Macon,US,AR,,KLRF,34.9168,-92.1465,95.0,America/Chicago,1956-01-01,2023-11-04,1956-02-22,2022-04-24,1956-01-01,2021-01-01,AR
Pine Bluff / Ladd,US,AR,,KPBF,34.1745,-91.9356,63.0,America/Chicago,1973-01-01,2023-11-04,1973-01-01,2022-04-24,2005-01-01,2021-01-01,AR
Texarkana / Rondo,US,AR,,KTXK,33.4537,-93.991,119.0,America/Chicago,1946-07-29,2023-11-04,1946-07-30,2022-04-24,1946-01-01,2022-01-01,AR
"Fort Huachuca, Libby Aaf Ft Huachuca",US,AZ,72273,KFHU,47.6333,-110.3333,1438.0,America/Phoenix,1954-10-11,2023-11-04,1900-02-01,2022-04-25,1900-01-01,2022-01-01,AZ
Tucson International Airport,US,AZ,72274,KTUS,32.1333,-110.95,805.0,America/Phoenix,1973-01-01,2023-11-04,1946-06-01,2023-10-31,1946-01-01,2022-01-01,AZ
Phoenix Sky Harbor Airport,US,AZ,72278,KPHX,33.4333,-112.05,345.0,America/Phoenix,1973-01-01,2023-11-04,1933-06-01,2023-10-31,1933-01-01,2022-01-01,AZ
Kingman Airport,US,AZ,72370,KIGM,35.25,-113.9333,1050.0,America/Phoenix,1999-01-01,2023-11-04,1996-07-01,2023-10-31,1996-01-01,2022-01-01,AZ
Page Municipal Airport,US,AZ,72371,KPGA,36.9333,-111.45,1314.0,America/Phoenix,2006-01-01,2023-11-04,1997-06-01,2023-10-31,1997-01-01,2022-01-01,AZ
Winslow Municipal Airport,US,AZ,72374,KINW,35.0333,-110.7167,1505.0,America/Phoenix,1973-01-01,2023-11-04,1898-10-01,2023-10-31,1898-01-01,2022-01-01,AZ
Chandler / Germann,US,AZ,,KIWA,33.3078,-111.6555,421.0,America/Phoenix,1942-03-01,2023-11-04,1942-03-03,2022-04-24,1942-01-01,2022-01-01,AZ
Phoenix / Glendale / Webb,US,AZ,,KLUF,33.535,-112.3832,331.0,America/Phoenix,1941-12-01,2023-11-04,1941-12-02,2022-04-24,1942-01-01,2021-01-01,AZ
Yuma / Desert Royal Mobile Park,US,AZ,,KNYL,32.6566,-114.606,65.0,America/Phoenix,1988-01-01,2023-11-04,1988-01-01,2022-04-24,1988-01-01,2020-01-01,AZ
Coolidge / Valley Farms,US,AZ,,KP08,32.9359,-111.4265,480.0,America/Phoenix,1944-07-16,2023-11-04,1944-07-17,2022-04-24,1944-01-01,2022-01-01,AZ
Prescott / Tutt,US,AZ,,KPRC,34.6544,-112.4196,1537.0,America/Phoenix,1991-01-01,2023-11-04,1991-01-01,2022-04-24,1991-01-01,2021-01-01,AZ
Fort Ord / Blanco,US,CA,69007,KOAR,36.6815,-121.7617,42.0,America/Los_Angeles,1973-01-02,2023-11-04,1983-03-31,2022-04-25,2020-01-01,2022-01-01,CA
Twentynine Palms / Sunfair Heights,US,CA,69015,KNXP,34.2962,-116.1622,625.0,America/Los_Angeles,1990-01-02,2023-11-04,1945-05-01,2022-04-24,1945-01-01,2021-01-01,CA
"El Centro, Naval Air Facility",US,CA,72281,KNJK,32.8167,-115.65,-13.0,America/Los_Angeles,1984-04-13,2023-11-04,1945-02-01,2023-10-29,1945-01-01,2022-01-01,CA
Riverside / March Air Force Base,US,CA,72286,KRIV,33.9,-117.25,469.0,America/Los_Angeles,1933-01-01,2023-11-04,1936-02-16,2023-10-31,1936-01-01,2022-01-01,CA
Burbank-Glendale-Pasadena,US,CA,72288,KBUR,34.2,-118.3667,236.0,America/Los_Angeles,1943-06-01,2023-11-04,1943-06-02,2023-10-31,1943-01-01,2022-01-01,CA
San Diego International Airport,US,CA,72290,KSAN,32.7333,-117.1833,5.0,America/Los_Angeles,1942-01-01,2023-11-04,1939-07-01,2023-10-31,1939-01-01,2022-01-01,CA
San Nicolas Island,US,CA,72291,KNSI,33.2333,-119.4667,154.0,America/Los_Angeles,1943-06-16,2023-11-04,1933-08-22,2022-04-24,1933-01-01,2021-01-01,CA
Avalon Catalina Airport,US,CA,72292,KAVX,33.4,-118.4167,488.0,America/Los_Angeles,1943-06-12,2023-11-04,1943-06-13,2023-10-31,1943-01-01,2022-01-01,CA
MCAS Miramar,US,CA,72293,KNKX,32.8667,-117.15,146.0,America/Los_Angeles,2005-04-01,2023-11-04,1947-07-01,2023-10-30,1947-01-01,2022-01-01,CA
Los Angeles Airport,US,CA,72295,KLAX,33.9333,-118.3833,38.0,America/Los_Angeles,1944-01-01,2023-11-04,1944-01-01,2023-10-31,1944-01-01,2022-01-01,CA
Long Beach Airport,US,CA,72297,KLGB,33.8167,-118.15,17.0,America/Los_Angeles,1943-01-01,2023-11-04,1943-01-01,2023-10-31,1943-01-01,2022-01-01,CA
Needles / Parker Junction,US,CA,72380,KEED,34.7663,-114.6233,300.0,America/Los_Angeles,1977-02-17,2023-11-04,1977-03-09,2022-04-24,2001-01-01,2022-01-01,CA
Edwards Air Force Base,US,CA,72381,KEDW,34.9167,-117.9,702.0,America/Los_Angeles,1941-12-01,2023-11-04,1941-12-21,2022-04-24,1942-01-01,2020-01-01,CA
Palmdale Prod Flight Plant,US,CA,72382,KPMD,34.6333,-118.0833,775.0,America/Los_Angeles,1973-01-01,2023-11-04,1934-01-02,2023-10-31,1934-01-01,2022-01-01,CA
Sandberg,US,CA,72383,KSDB,34.75,-118.7167,1379.0,America/Los_Angeles,1973-01-01,2023-11-04,1934-07-01,2023-10-31,1934-01-01,2022-01-01,CA
Bakersfield Meadows Field,US,CA,72384,KBFL,35.4333,-119.05,155.0,America/Los_Angeles,1941-10-01,2023-11-04,1937-10-01,2023-10-31,1937-01-01,2022-01-01,CA
Fresno Air Terminal,US,CA,72389,KFAT,36.7833,-119.7167,101.0,America/Los_Angeles,1941-12-04,2023-11-04,1941-12-04,2023-10-31,1942-01-01,2022-01-01,CA
"Nawcwpns Point Mugu, Ca",US,CA,72391,KNTD,34.1167,-119.1167,4.0,America/Los_Angeles,1973-01-01,2023-11-04,1946-03-01,2023-10-29,1946-01-01,2022-01-01,CA
Santa Barbara / La Patera,US,CA,72392,KSBA,34.4262,-119.8415,4.0,America/Los_Angeles,1973-01-01,2023-11-04,1941-01-02,2023-10-31,1941-01-01,2022-01-01,CA
"Lompoc, Vandenberg Air Force Base",US,CA,72393,KVBG,34.7167,-120.5667,112.0,America/Los_Angeles,2006-01-01,2023-11-04,1951-10-01,2022-04-25,1951-01-01,2021-01-01,CA
Santa Maria Public Airport,US,CA,72394,KSMX,34.9,-120.4667,79.0,America/Los_Angeles,1973-01-01,2023-11-04,1948-01-01,2023-10-31,1948-01-01,2022-01-01,CA
Bishop Airport,US,CA,72480,KBIH,37.3667,-118.3667,1256.0,America/Los_Angeles,1943-01-16,2023-11-04,1895-01-04,2023-10-31,1895-01-01,2022-01-01,CA
Merced / Castle Air Force Base,US,CA,72481,KMER,37.3667,-120.5667,57.0,America/Los_Angeles,1942-01-01,2023-11-03,1942-01-20,2022-04-25,1942-01-01,2022-01-01,CA
Sacramento Executive Airport,US,CA,72483,KSAC,38.5,-121.5,6.0,America/Los_Angeles,1973-01-01,2023-11-04,1941-11-10,2023-10-31,1941-01-01,2022-01-01,CA
Stockton Metropolitan Airport,US,CA,72492,KSCK,37.9,-121.2333,9.0,America/Los_Angeles,1941-01-03,2023-11-04,1941-02-20,2023-10-31,1941-01-01,2022-01-01,CA
Metro Oakland International  Airport,US,CA,72493,KOAK,37.7167,-122.2333,2.0,America/Los_Angeles,1943-01-01,2023-11-04,1943-01-02,2023-10-31,1943-01-01,2022-01-01,CA
San Francisco Airport,US,CA,72494,KSFO,37.6167,-122.3667,3.0,America/Los_Angeles,1973-01-01,2023-11-04,1945-07-01,2023-10-31,1945-01-01,2022-01-01,CA
Hayward / Russell City,US,CA,72585,KHWD,37.6589,-122.1218,16.0,America/Los_Angeles,2000-01-01,2023-11-04,1998-09-19,2023-10-31,1998-01-01,2022-01-01,CA
Red Bluff Municipal Airport,US,CA,72591,KRBL,40.15,-122.25,106.0,America/Los_Angeles,1973-01-01,2023-11-04,1892-01-01,2023-10-31,1892-01-01,2022-01-01,CA
Redding Municipal Airport,US,CA,72592,KRDD,40.5,-122.2833,153.0,America/Los_Angeles,1992-01-01,2023-11-04,1986-09-01,2023-10-31,1986-01-01,2022-01-01,CA
Salinas / Spreckels Junction,US,CA,72593,KSNS,36.6628,-121.6064,26.0,America/Los_Angeles,1941-08-05,2023-11-04,1930-06-14,2023-10-31,1930-01-01,2022-01-01,CA
Eureka,US,CA,72594,KEKA,40.8,-124.1667,13.0,America/Los_Angeles,2006-01-01,2023-09-10,1941-12-01,2023-10-31,1941-01-01,2022-01-01,CA
"Sheridan, Ca",US,CA,74500,KBAB,39.0,-121.3333,0.0,America/Los_Angeles,1959-07-01,2023-11-04,1959-07-02,2022-04-24,1959-01-01,2021-01-01,CA
Moffett Field,US,CA,74509,KNUQ,37.4333,-122.05,10.0,America/Los_Angeles,1973-01-01,2023-11-04,1945-03-01,2022-04-25,1945-01-01,2022-01-01,CA
Fairfield / Travis Air Force Base,US,CA,74516,KSUU,38.2667,-121.95,19.0,America/Los_Angeles,1943-08-11,2023-11-04,1943-08-12,2023-01-07,1943-01-01,2021-01-01,CA
Naws China Lake,US,CA,74612,KNID,35.6833,-117.7,696.0,America/Los_Angeles,1973-01-01,2023-11-04,1944-02-01,2023-10-29,1944-01-01,2022-01-01,CA
Lemoore Naval Air Station,US,CA,74702,KNLC,36.3333,-119.95,71.0,America/Los_Angeles,1961-07-01,2023-11-04,1961-07-01,2023-10-29,1961-01-01,2022-01-01,CA
Arcata / Clam Beach,US,CA,,KACV,40.9781,-124.1086,68.0,America/Los_Angeles,1973-01-01,2023-11-04,1973-01-01,2022-04-24,1981-01-01,2022-01-01,CA
Blythe / Mesa Verde,US,CA,,KBLH,33.6192,-114.7169,122.0,America/Los_Angeles,1942-06-13,2023-11-04,1942-06-30,2022-04-24,1942-01-01,2022-01-01,CA
Blue Canyon,US,CA,,KBLU,39.275,-120.7097,1611.0,America/Los_Angeles,1973-01-01,2023-11-04,1973-01-02,2022-04-24,1981-01-01,2022-01-01,CA
Crescent City / Crescent City North,US,CA,,KCEC,41.7802,-124.2365,19.0,America/Los_Angeles,1973-01-01,2023-11-04,1992-08-13,2022-04-24,2005-01-01,2022-01-01,CA
Daggett / Minneola,US,CA,,KDAG,34.8537,-116.7867,588.0,America/Los_Angeles,1949-01-01,2023-11-04,1949-01-01,2022-04-24,1949-01-01,2021-01-01,CA
Fresno / West Park,US,CA,,KFCH,36.7321,-119.8203,85.0,America/Los_Angeles,1995-04-23,2023-08-21,1995-05-06,2022-03-05,,,CA
Sacramento / McClellan Park,US,CA,,KMCC,38.6676,-121.4006,23.0,America/Los_Angeles,1939-11-09,2023-11-04,1941-02-09,2022-04-24,1941-01-01,2022-01-01,CA
Modesto City / Riverside,US,CA,,KMOD,37.6258,-120.9544,30.0,America/Los_Angeles,1973-01-01,2023-11-04,1998-05-16,2022-04-24,1999-01-01,2021-01-01,CA
Oceanside / Chappo,US,CA,,KNFG,33.3011,-117.3551,24.0,America/Los_Angeles,1973-01-02,2023-11-04,1977-08-23,2022-04-24,1987-01-01,2020-01-01,CA
Imperial Beach,US,CA,,KNRS,32.5667,-117.1167,7.0,America/Los_Angeles,1973-01-01,2023-11-04,1973-01-12,2022-04-24,2008-01-01,2018-01-01,CA
San Clemente / Avalon,US,CA,,KNUC,33.0227,-118.5885,56.0,America/Los_Angeles,1943-06-10,2023-11-04,1943-06-10,2022-04-23,1945-01-01,1986-01-01,CA
Oxnard,US,CA,,KOXR,34.2008,-119.2072,14.0,America/Los_Angeles,1944-04-01,2023-11-04,1944-04-02,2022-04-24,1944-01-01,2022-01-01,CA
Paso Robles / Estrella,US,CA,,KPRB,35.6729,-120.6271,256.0,America/Los_Angeles,1941-12-01,2023-11-04,1942-02-02,2022-04-24,1942-01-01,2022-01-01,CA
San Bernardino / North Norton,US,CA,,KSBD,34.0954,-117.2349,353.0,America/Los_Angeles,1943-01-06,2023-11-04,1943-03-17,2022-04-24,1943-01-01,2022-01-01,CA
Montague / Snowden,US,CA,,KSIY,41.7814,-122.4681,808.0,America/Los_Angeles,1950-01-01,2023-11-04,1950-01-02,2022-04-24,1950-01-01,2021-01-01,CA
San Jose / Santa Clara Trailer Village,US,CA,,KSJC,37.3627,-121.9291,19.0,America/Los_Angeles,1973-01-01,2023-11-04,1973-01-01,2022-04-24,2000-01-01,2022-01-01,CA
Sacramento / Kiesel,US,CA,,KSMF,38.6954,-121.5908,8.0,America/Los_Angeles,1973-01-01,2023-11-04,1973-01-01,2022-04-24,1974-01-01,2022-01-01,CA
Santa Ana / Paularino,US,CA,,KSNA,33.6757,-117.8682,17.0,America/Los_Angeles,1940-06-17,2023-11-04,1942-10-06,2022-04-24,1943-01-01,2021-01-01,CA
Thermal,US,CA,,KTRM,33.6267,-116.1597,-35.0,America/Los_Angeles,1943-07-12,2023-11-04,1943-07-13,2022-04-24,1943-01-01,2022-01-01,CA
Ukiah / Asylum,US,CA,,KUKI,39.126,-123.2009,188.0,America/Los_Angeles,1973-01-01,2023-11-04,1973-01-01,2022-04-24,2005-01-01,2022-01-01,CA
Van Nuys / Raymer,US,CA,,KVNY,34.2098,-118.49,245.0,America/Los_Angeles,1942-12-11,2023-11-04,1942-12-12,2022-04-24,1943-01-01,2022-01-01,CA
Lancaster / Antelope Acres,US,CA,,KWJF,34.7411,-118.2186,717.0,America/Los_Angeles,1974-06-01,2023-11-04,1974-06-03,2022-04-24,1975-01-01,2022-01-01,CA
Julian CDF,US,CA,,,33.0833,-116.63,1285.0,America/Los_Angeles,,,1893-01-01,2023-10-24,1893-01-01,2022-01-01,CA
San Luis Valley Regional,US,CO,72462,KALS,37.4333,-105.8667,2297.0,America/Denver,1973-01-01,2023-11-04,1948-01-01,2023-10-31,1948-01-01,2022-01-01,CO
La Junta / La Junta Village,US,CO,72463,KLHX,38.05,-103.5097,1289.0,America/Denver,1942-11-01,2023-11-04,1942-11-02,2022-04-25,1943-01-01,2021-01-01,CO
Pueblo Memorial Airport,US,CO,72464,KPUB,38.2833,-104.5,1440.0,America/Denver,1942-10-01,2023-11-04,1942-10-01,2023-10-31,1942-01-01,2022-01-01,CO
Colorado Springs Muni,US,CO,72466,KCOS,38.8167,-104.7167,1885.0,America/Denver,1942-09-01,2023-11-04,1942-09-01,2023-10-31,1942-01-01,2022-01-01,CO
Fort Carson,US,CO,72468,KFCS,38.7,-104.7667,1789.0,America/Denver,1966-09-15,2023-11-04,1966-09-15,2022-04-25,1970-01-01,2020-01-01,CO
"Denver / Stapleton International, Co.",US,CO,72469,KDNR,39.7833,-104.8667,1626.0,America/Denver,1940-05-15,1995-03-01,1940-05-15,2023-09-19,1940-01-01,2021-01-01,CO
Grand Junction Walker Field,US,CO,72476,KGJT,39.1333,-108.5333,1481.0,America/Denver,1973-01-01,2023-11-04,1900-01-01,2023-10-31,1900-01-01,2022-01-01,CO
Denver International Airport,US,CO,72565,KDEN,39.8667,-104.6667,1655.0,America/Denver,1994-07-18,2023-11-04,1994-07-19,2023-10-30,1995-01-01,2022-01-01,CO
Craig Moffat Airport,US,CO,72570,KCAG,40.5,-107.5167,1888.0,America/Denver,2006-01-01,2023-11-04,1996-09-01,2023-10-31,1996-01-01,2022-01-01,CO
Air Force Academy,US,CO,74531,KAFF,38.9667,-104.8167,2003.0,America/Denver,1967-11-27,2023-11-04,1970-08-01,2022-04-25,2008-01-01,2022-01-01,CO
"Limon, County",US,CO,74532,,39.1833,-103.7,0.0,America/Denver,,,1948-08-01,2023-10-31,1948-01-01,2022-01-01,CO
Akron,US,CO,,KAKO,40.1756,-103.222,1438.0,America/Denver,1973-01-01,2023-11-04,1973-01-01,2022-04-23,1999-01-01,2022-01-01,CO
Denver / Aurora / Side Creek,US,CO,,KBKF,39.7017,-104.7517,1726.0,America/Denver,1944-03-01,2023-11-04,1961-03-02,2022-04-24,1961-01-01,2021-01-01,CO
Eagle County / Gypsum,US,CO,,KEGE,39.6428,-106.9159,1996.0,America/Denver,1973-01-01,2023-11-04,1973-01-01,2022-04-24,1981-01-01,2022-01-01,CO
Limon,US,CO,,KLIC,39.2748,-103.6659,1638.0,America/Denver,1973-01-01,2023-11-04,1986-12-03,2022-04-24,1989-01-01,2021-01-01,CO
Trinidad / Hoehne,US,CO,,KTAD,37.2594,-104.3407,1756.0,America/Denver,1973-01-01,2023-11-04,1973-01-01,2022-04-24,2001-01-01,2022-01-01,CO
Sikorsky Memorial Airport,US,CT,72504,KBDR,41.1667,-73.1333,3.0,America/New_York,1942-12-08,2023-11-04,1942-12-08,2023-10-31,1943-01-01,2022-01-01,CT
Bradley International Airport,US,CT,72508,KBDL,41.9333,-72.6833,53.0,America/New_York,1941-09-12,2023-11-04,1942-01-08,2023-10-31,1942-01-01,2022-01-01,CT
Groton / Midway,US,CT,,KGON,41.3301,-72.0451,3.0,America/New_York,1943-01-19,2023-11-04,1943-01-20,2022-04-24,1943-01-01,2021-01-01,CT
Hartford / Colonial Mobile Home Park,US,CT,,KHFD,41.7367,-72.6494,6.0,America/New_York,1974-01-01,2023-11-04,1979-06-22,2022-04-24,2005-01-01,2022-01-01,CT
Wilmington / Duross Heights,US,DE,72418,KILG,39.6787,-75.6066,24.0,America/New_York,1942-08-01,2023-11-04,1931-04-16,2023-10-31,1943-01-01,2022-01-01,DE
Key West Airport,US,FL,72201,KEYW,24.55,-81.1,1.0,America/New_York,1973-01-01,2023-11-04,1948-01-01,2023-10-31,1948-01-01,2022-01-01,FL
Miami International Airport,US,FL,72202,KMIA,25.7833,-80.3167,4.0,America/New_York,1973-01-01,2023-11-04,1948-01-01,2023-10-31,1948-01-01,2022-01-01,FL
Palm Beach International,US,FL,72203,KPBI,26.6833,-80.1,6.0,America/New_York,1943-02-06,2023-11-04,1938-07-01,2023-10-31,1938-01-01,2022-01-01,FL
Melbourne International,US,FL,72204,KMLB,28.1,-80.65,10.0,America/New_York,1974-11-13,2023-11-04,1974-11-13,2023-10-31,2000-01-01,2022-01-01,FL
Orlando Airport,US,FL,72205,KMCO,28.4167,-81.0,29.0,America/New_York,1952-05-07,2023-11-04,1952-05-16,2023-10-31,1952-01-01,2022-01-01,FL
Jacksonville International,US,FL,72206,KJAX,30.5,-81.0333,9.0,America/New_York,1948-01-01,2023-11-04,1938-04-01,2023-10-31,1938-01-01,2022-01-01,FL
Tampa Bay Area,US,FL,72210,KTBW,27.7,-82.4,12.0,America/New_York,1977-08-26,2006-04-01,1976-03-01,2023-10-31,1976-01-01,2022-01-01,FL
Tampa International Airport,US,FL,72211,KTPA,27.9667,-82.5333,8.0,America/New_York,1940-08-01,2023-11-04,1939-02-01,2023-10-31,1939-01-01,2022-01-01,FL
Cross City Airport,US,FL,72212,KCTY,29.6333,-83.1,13.0,America/New_York,1943-12-21,2023-11-04,1943-12-22,2023-10-31,1944-01-01,2022-01-01,FL
Tallahassee Airport,US,FL,72214,KTLH,30.4,-84.0167,25.0,America/New_York,1942-05-01,2023-11-04,1940-03-01,2023-10-31,1940-01-01,2022-01-01,FL
Apalachicola Municipal Airport,US,FL,72220,KAAF,29.7167,-85.0167,6.0,America/New_York,1945-01-01,2023-11-04,1931-03-01,2023-10-31,1931-01-01,2022-01-01,FL
Valparaiso / Eglin Air Force Base,US,FL,72221,KVPS,30.4833,-86.5167,26.0,America/Chicago,1938-09-10,2023-11-04,1941-07-02,2022-04-25,1941-01-01,2022-01-01,FL
Pensacola / Pleasant Grove,US,FL,72222,KNPA,30.3533,-87.318,9.0,America/Indiana/Tell_City,1945-02-01,2023-11-04,1945-04-05,2023-10-31,1945-01-01,2022-01-01,FL
Gainesville / Brittany Estates Mobile Home Park,US,FL,74756,KGNV,29.6901,-82.2718,46.0,America/New_York,2005-01-01,2023-11-04,1960-05-17,2023-10-31,1960-01-01,2022-01-01,FL
Tyndall Air Force Base,US,FL,74775,KPAM,30.0667,-85.5833,5.0,America/Chicago,1942-03-19,2023-11-04,1942-04-21,2022-04-25,1942-01-01,2022-01-01,FL
Marianna / Chipola Terrace,US,FL,74776,KMAI,30.8378,-85.1819,34.0,America/Chicago,2005-01-01,2023-11-04,1950-01-01,2023-10-31,1950-01-01,2022-01-01,FL
Hurlburt Field,US,FL,74777,KHRT,30.4167,-86.6833,12.0,America/Chicago,1955-07-05,2023-11-04,1955-07-01,2022-04-25,1955-01-01,2021-01-01,FL
Jacksonville / Hatch Road Mobile Home Park,US,FL,74782,KCRG,30.3363,-81.5144,13.0,America/New_York,2005-01-01,2023-11-04,1998-01-01,2023-10-31,1998-01-01,2022-01-01,FL
Fort Lauderdale,US,FL,74783,KFLL,26.0726,-80.1527,3.0,America/New_York,2005-01-01,2023-11-04,1945-03-01,2023-10-31,1945-01-01,2022-01-01,FL
Daytona Beach / Mansfield Mobile Home Park,US,FL,74787,KDAB,29.1799,-81.0581,10.0,America/New_York,2005-01-01,2023-11-04,1937-01-01,2023-10-31,1937-01-01,2022-01-01,FL
"Macdill Air Force Base, Fl.",US,FL,74788,KMCF,27.85,-82.5,4.0,America/New_York,1941-05-01,2023-11-04,1941-05-03,2022-04-25,1941-01-01,2021-01-01,FL
Gifford,US,FL,74793,KGIF,27.6561,-80.4181,44.0,America/New_York,2005-01-01,2023-11-04,1923-12-01,2023-10-31,1923-01-01,2022-01-01,FL
"Cocoa Beach, Cape Canaveral Air Force Station Skid Strip",US,FL,74794,KXMR,28.4667,-80.5667,3.0,America/New_York,1950-08-01,2023-11-04,1950-07-09,2022-04-25,1950-01-01,2021-01-01,FL
Cocoa / Patrick Air Force Base,US,FL,74795,KCOF,28.2333,-80.6,3.0,America/New_York,1945-03-01,2023-11-04,1945-03-02,2022-04-25,1945-01-01,2021-01-01,FL
Avon Park Gunnery Range,US,FL,74796,KAGR,27.65,-81.3333,20.0,America/New_York,1943-12-01,2023-11-04,1943-12-02,2022-04-24,1944-01-01,1945-01-01,FL
Crestview / Silver Springs,US,FL,,KCEW,30.7788,-86.5221,65.0,America/Chicago,1973-01-01,2023-11-04,1973-01-01,2022-04-24,1999-01-01,2021-01-01,FL
Duke Fld / Killingsworth Crossroads,US,FL,,KEGI,30.6503,-86.5229,59.0,America/Chicago,1949-09-08,2023-11-04,1949-09-09,2022-04-25,2009-01-01,2021-01-01,FL
Fort Myers / Page Park,US,FL,,KFMY,26.5866,-81.8632,5.0,America/New_York,1943-01-01,2023-11-04,1943-01-02,2022-04-24,1943-01-01,2022-01-01,FL
Homestead / Homestead Base,US,FL,,KHST,25.4884,-80.3837,2.0,America/New_York,1943-02-01,2023-11-04,1943-02-02,2022-04-24,1943-01-01,2022-01-01,FL
Mayport,US,FL,,KNRB,30.3914,-81.4245,5.0,America/New_York,1973-01-01,2023-11-04,1973-01-01,2022-04-24,1984-01-01,2021-01-01,FL
Milton / Point Baker,US,FL,,KNSE,30.7225,-87.0239,61.0,America/Chicago,1973-01-01,2023-11-04,1973-01-01,2022-03-18,1981-01-01,2021-01-01,FL
Orlando / Azalea Park,US,FL,,KORL,28.5455,-81.3329,34.0,America/New_York,1990-02-08,2023-11-04,1990-02-09,2022-04-24,2005-01-01,2021-01-01,FL
Sebring / Istokpoga,US,FL,,KSEF,27.4564,-81.3424,19.0,America/New_York,1942-04-01,2023-11-04,1942-04-03,2022-04-25,1942-01-01,2022-01-01,FL
Sanford / Orlando / Midway,US,FL,,KSFB,28.7767,-81.2355,17.0,America/New_York,1973-01-01,2023-11-04,1991-12-20,2022-04-24,2005-01-01,2021-01-01,FL
Saint Petersburg,US,FL,,KSPG,27.7651,-82.627,2.0,America/New_York,1986-01-01,2023-11-04,1998-06-18,2022-04-24,2005-01-01,2022-01-01,FL
Savannah Airport,US,GA,72207,KSAV,32.1167,-81.0333,16.0,America/New_York,1948-01-01,2023-11-04,1948-01-01,2023-10-31,1948-01-01,2022-01-01,GA
Ft. Stewart,US,GA,72209,KLHW,31.8833,-81.5667,14.0,America/New_York,2006-01-03,2023-11-04,1967-02-01,2022-04-24,1967-01-01,2022-01-01,GA
Waycross / Ware County,US,GA,72213,KAYS,31.25,-82.4,46.0,America/New_York,1942-12-01,2023-11-04,1942-12-02,2022-04-25,1944-01-01,2022-01-01,GA
Peachtree City,US,GA,72215,KFFC,33.3667,-84.5667,262.0,America/New_York,2006-01-01,2023-11-04,1994-08-01,2023-10-31,1994-01-01,2022-01-01,GA
Albany Southwest Georgia,US,GA,72216,KABY,31.5333,-84.2,60.0,America/New_York,1973-01-01,2023-11-04,1948-01-01,2023-10-31,1948-01-01,2022-01-01,GA
Middle Georgia Regional Airport,US,GA,72217,KMCN,32.6833,-83.15,108.0,America/New_York,1941-10-20,2023-11-04,1941-10-20,2023-10-31,1941-01-01,2022-01-01,GA
Augusta Bush Field,US,GA,72218,KAGS,33.3667,-81.9667,44.0,America/New_York,1948-01-01,2023-11-04,1942-12-01,2023-10-31,1942-01-01,2022-01-01,GA
Hartsfield-Jackson Atlanta,US,GA,72219,KATL,33.65,-84.1,313.0,America/New_York,1973-01-01,2023-11-04,1930-01-01,2023-10-31,1930-01-01,2022-01-01,GA
Fort Benning,US,GA,72225,KLSF,32.3333,-84.8333,71.0,America/New_York,1939-05-01,2023-11-04,1939-05-01,2023-11-01,1939-01-01,2022-01-01,GA
Marietta / Dobbins Air Force Base,US,GA,72227,KMGE,33.9167,-84.5167,326.0,America/New_York,1946-09-01,2023-11-04,1946-09-02,2022-04-24,1946-01-01,2021-01-01,GA
Athens Ben Epps Airport,US,GA,72311,KAHN,33.95,-83.3333,246.0,America/New_York,1973-01-01,2023-11-04,1944-06-01,2023-10-31,1944-01-01,2022-01-01,GA
Alma / Guysie,US,GA,72316,KAMG,31.5361,-82.5066,61.0,America/New_York,1973-01-01,2023-11-04,1938-06-01,2023-10-31,1938-01-01,2022-01-01,GA
Rome R. B. Russell Airport,US,GA,72320,KRMG,34.35,-85.1667,195.0,America/New_York,1978-01-01,2023-11-02,1948-01-01,2023-10-31,1948-01-01,2022-01-01,GA
Moody Air Force Base,US,GA,74781,KVAD,30.9667,-83.2,71.0,America/New_York,2006-01-03,2023-11-04,1951-07-01,2022-04-25,1951-01-01,2022-01-01,GA
Columbus / Wayne Terrace,US,GA,,KCSG,32.5163,-84.9389,121.0,America/New_York,1948-01-01,2023-11-04,1948-01-02,2022-04-23,1948-01-01,2021-01-01,GA
Brunswick / Mallory Park,US,GA,,KSSI,31.1518,-81.3913,6.0,America/New_York,1973-01-01,2023-11-04,1973-01-01,2022-04-24,2000-01-01,2022-01-01,GA
Valdosta / Macville (Historical),US,GA,,KVLD,30.7814,-83.2762,62.0,America/New_York,1948-01-01,2023-11-04,1948-01-02,2022-04-24,1948-01-01,2021-01-01,GA
Warner Robins,US,GA,,KWRB,32.6401,-83.5918,90.0,America/New_York,1942-08-07,2023-11-04,1942-08-08,2022-04-24,1942-01-01,2021-01-01,GA
"Sand Island, Henderson Field Airport",US,HI,91066,PMDY,28.2167,-177.3667,4.0,Pacific/Midway,1945-04-01,2023-11-04,1945-04-02,2023-10-25,1945-01-01,2022-01-01,HI
Pmrf Barking Sands,US,HI,91162,PHBK,22.0333,-159.7833,4.0,Pacific/Honolulu,1942-04-22,2023-11-04,1942-11-11,2022-04-25,1943-01-01,2021-01-01,HI
Lihue Airport,US,HI,91165,PHLI,21.9833,-159.3333,45.0,Pacific/Honolulu,1973-01-01,2023-11-04,1950-02-01,2023-10-27,1950-01-01,2022-01-01,HI
Wheeler Air Force Base / Oahu,US,HI,91170,PHHI,21.4833,-158.0333,255.0,Pacific/Honolulu,1939-06-01,2023-11-04,1940-06-19,2022-04-25,1940-01-01,2022-01-01,HI
Kaena Point / Mokul?‘Ia Beach Colony,US,HI,91171,,21.5667,-158.25,341.0,Pacific/Honolulu,,,1972-05-01,2023-09-29,1972-01-01,1985-01-01,HI
Lualualei;Oahu / Mikilua Camp,US,HI,91172,,21.4333,-158.1333,35.0,Pacific/Honolulu,,,1949-10-01,2022-04-29,1949-01-01,2020-01-01,HI
Mcbh Kaneohe Bay Hawaii,US,HI,91176,PHNG,21.45,-157.75,7.0,Pacific/Honolulu,1973-01-01,2023-11-04,1942-01-01,2023-10-25,1942-01-01,2022-01-01,HI
Kalaeloa Airport,US,HI,91178,PHJR,21.3167,-158.0667,10.0,Pacific/Honolulu,2015-09-05,2023-11-04,1949-01-01,2022-04-24,1949-01-01,1998-01-01,HI
Honolulu International Airport,US,HI,91182,PHNL,21.3333,-157.95,4.0,Pacific/Honolulu,1939-06-01,2023-11-04,1939-06-01,2023-10-28,1939-01-01,2022-01-01,HI
Waimanalo / Waim?Nalo Beach,US,HI,91184,KBLW,21.3333,-157.7167,18.0,Pacific/Honolulu,,,1969-09-01,2023-02-17,1969-01-01,2021-01-01,HI
"Kaunakakai, Molokai Airport",US,HI,91186,PHMK,21.15,-157.1,138.0,Pacific/Honolulu,2006-01-01,2023-11-04,1949-10-01,2023-10-27,1949-01-01,2022-01-01,HI
Kahului Airport,US,HI,91190,PHOG,20.9,-156.4333,16.0,Pacific/Honolulu,1973-01-01,2023-11-04,1905-01-01,2023-10-27,1905-01-01,2022-01-01,HI
Kailua,US,HI,91196,,20.9,-156.2167,213.0,Pacific/Honolulu,,,1905-01-01,2022-06-03,1905-01-01,2007-01-01,HI
Kula Expmt Stn / Waiakoa,US,HI,91198,,20.7667,-156.3333,928.0,Pacific/Honolulu,,,1979-04-01,2023-10-27,1979-01-01,2020-01-01,HI
Hilo International Airport,US,HI,91285,PHTO,19.7167,-155.05,12.0,Pacific/Honolulu,1973-01-01,2023-11-04,1949-10-01,2023-10-27,1949-01-01,2022-01-01,HI
Burlington / Congers Mobile Home Park,US,IA,72542,KBRL,40.7832,-91.1255,213.0,America/Chicago,2005-01-01,2023-11-04,1897-07-14,2023-10-31,1897-01-01,2022-01-01,IA
Cedar Rapids / Konigsmark,US,IA,72545,KCID,41.8851,-91.7123,265.0,America/Chicago,1973-01-01,2023-11-04,1953-06-01,2023-10-31,1953-01-01,2022-01-01,IA
Des Moines International,US,IA,72546,KDSM,41.5333,-93.6531,292.0,America/Chicago,1973-01-01,2023-11-04,1945-07-01,2023-10-31,1945-01-01,2022-01-01,IA
Waterloo Municipal Airport,US,IA,72548,KALO,42.55,-92.0667,266.0,America/Chicago,1960-03-01,2023-11-04,1950-03-01,2023-10-31,1950-01-01,2022-01-01,IA
Sioux Gateway Airport,US,IA,72557,KSUX,42.3833,-96.05,335.0,America/Chicago,1942-10-01,2023-11-04,1942-10-01,2023-10-31,1942-01-01,2022-01-01,IA
Spencer / Birchwood Estates,US,IA,72650,,43.1667,-95.15,408.0,America/Chicago,,,1895-02-01,2023-10-31,1895-01-01,2022-01-01,IA
Iowa City / Baculis Mobile Home Park,US,IA,,KIOW,41.6398,-91.5481,204.0,America/Chicago,1997-01-23,2023-11-04,1997-02-13,2022-04-24,2005-01-01,2021-01-01,IA
Mason City / Orchard Park Mobile Home Court,US,IA,,KMCW,43.1578,-93.3313,370.0,America/Chicago,1973-01-01,2023-11-04,1973-01-01,2022-04-24,1975-01-01,2022-01-01,IA
Ottumwa / Keb (Historical),US,IA,,KOTM,41.1066,-92.4479,258.0,America/Chicago,1973-01-01,2023-11-04,1973-01-01,2022-04-24,1975-01-01,2021-01-01,IA
Pocatello Regional Airport,US,ID,72578,KPIH,42.9167,-112.6,1356.0,America/Boise,1943-01-01,2023-11-04,1939-01-03,2023-10-31,1939-01-01,2022-01-01,ID
Boise Air Terminal,US,ID,72681,KBOI,43.5667,-116.2333,871.0,America/Boise,1931-01-01,2023-11-04,1931-01-01,2023-10-31,1931-01-01,2022-01-01,ID
Lewiston Nez Perce Co Airport,US,ID,72783,KLWS,46.3667,-117.0167,438.0,America/Los_Angeles,1973-01-01,2023-11-04,1948-01-01,2023-10-31,1948-01-01,2022-01-01,ID
Burley / Heyburn,US,ID,,KBYI,42.5426,-113.7715,1266.0,America/Boise,1973-01-01,2023-11-04,1973-01-01,2022-04-24,2001-01-01,2022-01-01,ID
Idaho Falls / Orvin,US,ID,,KIDA,43.5137,-112.0708,1446.0,America/Boise,1973-01-01,2023-11-04,1973-01-01,2022-04-24,1999-01-01,2022-01-01,ID
Mountain Home / Mountain Home Air Force Base,US,ID,,KMUO,43.0436,-115.8724,913.0,America/Boise,1932-01-01,2023-11-04,1932-01-02,2022-04-24,1932-01-01,2021-01-01,ID
"Salem, Salem-Leckrone Airport",US,IL,72433,KSLO,38.6333,-88.95,175.0,America/Chicago,2007-08-13,2023-11-04,1915-07-01,2023-11-01,1915-01-01,2022-01-01,IL
Lambert-St Louis International  Airport,US,IL,72434,KSTL,38.75,-90.0333,184.0,America/Chicago,1973-01-01,2023-11-04,1938-04-01,2023-10-31,1938-01-01,2022-01-01,IL
Springfield / Bando,US,IL,72439,KSPI,39.8442,-89.6781,182.0,America/Chicago,1973-01-01,2023-11-04,1901-01-01,2023-10-31,1901-01-01,2022-01-01,IL
Quincy / Burton,US,IL,72443,KUIN,39.9429,-91.1946,234.0,America/Chicago,1973-01-01,2023-11-04,1948-06-01,2023-10-31,1948-01-01,2022-01-01,IL
Chicago O’hare Airport,US,IL,72530,KORD,41.9833,-87.9167,204.0,America/Chicago,1946-10-01,2023-11-04,1946-10-09,2023-10-31,1946-01-01,2022-01-01,IL
Greater Peoria Regional Airport,US,IL,72532,KPIA,40.6667,-89.6839,201.0,America/Chicago,1973-01-01,2023-11-04,1943-05-04,2023-10-31,1943-01-01,2022-01-01,IL
Chicago Midway Airport,US,IL,72534,KMDW,41.7833,-87.75,189.0,America/Chicago,1973-01-01,2023-11-04,1928-02-29,2023-10-31,1928-01-01,2022-01-01,IL
Greater Rockford Airport,US,IL,72543,KRFD,42.2,-89.1,224.0,America/Chicago,1973-01-01,2023-11-04,1951-01-01,2023-10-31,1951-01-01,2022-01-01,IL
Moline Quad-City Airport,US,IL,72544,KMLI,41.45,-90.0167,180.0,America/Chicago,1973-01-01,2023-11-04,1943-05-24,2023-10-31,1943-01-01,2022-01-01,IL
Dubuque Regional Airport,US,IL,72547,KDBQ,42.4,-90.0333,328.0,America/Chicago,1973-01-01,2023-11-04,1951-02-01,2023-10-31,1951-01-01,2022-01-01,IL
Evansville Regional,US,IN,72432,KEVV,38.0333,-87.5333,127.0,America/Chicago,1973-01-01,2023-11-04,1948-01-01,2023-10-31,1948-01-01,2022-01-01,IN
Columbus / Flat Rock Park,US,IN,72436,KBAK,39.2619,-85.8963,200.0,America/Indiana/Indianapolis,1990-02-08,2023-11-04,1949-07-06,2021-07-10,1949-01-01,1959-01-01,IN
Indianapolis International  Airport,US,IN,72438,KIND,39.7167,-86.1167,243.0,America/Indiana/Indianapolis,1942-10-06,2023-11-04,1942-10-06,2023-11-01,1942-01-01,2022-01-01,IN
Fort Wayne International,US,IN,72533,KFWA,41.0,-85.0333,248.0,America/Indiana/Indianapolis,1941-11-01,2023-11-04,1939-08-01,2023-10-31,1939-01-01,2022-01-01,IN
South Bend Regional Airport,US,IN,72535,KSBN,41.7,-86.3167,244.0,America/Indiana/Indianapolis,1973-01-01,2023-11-04,1893-12-01,2023-10-31,1893-01-01,2022-01-01,IN
Lafayette / Summit,US,IN,,KLAF,40.4123,-86.9369,185.0,America/Indiana/Indianapolis,1973-01-01,2023-11-04,1973-01-01,2022-04-24,1979-01-01,2022-01-01,IN
Olathe / Clare,US,KS,72447,KIXD,38.8309,-94.8903,331.0,America/Chicago,1978-11-24,2023-11-04,1945-03-01,2023-10-31,1945-01-01,2022-01-01,KS
Wichita Mid-Continent Airport,US,KS,72450,KICT,37.65,-97.1,406.0,America/Chicago,1973-01-01,2023-11-04,1953-12-01,2023-10-31,1951-01-01,2022-01-01,KS
Dodge City Regional Airport,US,KS,72451,KDDC,37.7667,-99.1333,791.0,America/Chicago,1943-04-19,2023-11-04,1909-04-01,2023-10-31,1909-01-01,2022-01-01,KS
Medicine Lodge,US,KS,72452,KP28,37.2833,-98.55,469.0,America/Chicago,1978-03-10,2023-11-04,1978-09-23,2023-10-31,1989-01-01,2022-01-01,KS
"Fort Riley, Marshall Aaf Ft Riley",US,KS,72455,KFRI,39.05,-96.75,324.0,America/Chicago,1938-08-17,2023-11-04,1939-03-11,2022-04-25,1939-01-01,2021-01-01,KS
Topeka Billard Municipal Airport,US,KS,72456,KTOP,39.0667,-95.1333,269.0,America/Chicago,1973-01-01,2023-11-04,1946-08-01,2023-10-31,1946-01-01,2022-01-01,KS
"Concordia, Blosser Municipal Airport",US,KS,72458,KCNK,39.55,-97.65,453.0,America/Chicago,1973-01-01,2023-11-04,1885-05-01,2023-10-31,1885-01-01,2022-01-01,KS
Goodland Renner Field,US,KS,72465,KGLD,39.3667,-101.7,1114.0,America/Denver,1973-01-01,2023-11-04,1895-06-09,2023-10-31,1895-01-01,2022-01-01,KS
"Smokey Hill Gunnery Range, Ks.",US,KS,74545,KSLN,38.65,-97.8,0.0,America/Chicago,1973-01-01,2023-11-04,1973-01-01,2022-04-25,1975-01-01,2022-01-01,KS
Chanute,US,KS,,KCNU,37.6688,-95.4851,306.0,America/Chicago,1973-01-01,2023-11-04,1973-01-01,2022-04-24,1999-01-01,2021-01-01,KS
Emporia / Genes Mobile Home Park,US,KS,,KEMP,38.3306,-96.1899,368.0,America/Chicago,1973-01-01,2023-11-04,1973-01-01,2022-04-24,2005-01-01,2021-01-01,KS
Garden City / Mansfield,US,KS,,KGCK,37.9275,-100.7244,881.0,America/Chicago,1943-02-01,2023-11-04,1943-02-02,2022-04-24,1943-01-01,2021-01-01,KS
Hill City,US,KS,,KHLC,39.3802,-99.8315,682.0,America/Chicago,1973-01-01,2023-11-04,1996-05-18,2022-04-23,2005-01-01,2021-01-01,KS
Hutchinson / Obeeville,US,KS,,KHUT,38.0655,-97.8606,470.0,America/Chicago,1945-02-01,2023-11-04,1945-02-02,2022-04-24,1945-01-01,2022-01-01,KS
Russell / Homer,US,KS,,KRSL,38.8714,-98.8116,568.0,America/Chicago,1943-02-01,2023-11-04,1943-02-02,2022-04-23,1944-01-01,2021-01-01,KS
Cincinnati/Northern Ky International,US,KY,72421,KCVG,39.05,-84.6667,273.0,America/New_York,1973-01-01,2023-11-04,1948-01-01,2023-10-31,1948-01-01,2022-01-01,KY
Lexington Blue Grass Airport,US,KY,72422,KLEX,38.0333,-84.6,299.0,America/New_York,1973-01-01,2023-11-04,1872-10-11,2023-10-31,1872-01-01,2022-01-01,KY
Standiford Field,US,KY,72423,KSDF,38.1833,-85.7333,151.0,America/Kentucky/Louisville,1973-01-01,2023-11-04,1948-01-01,2023-10-31,1948-01-01,2022-01-01,KY
Fort Knox,US,KY,72424,KFTK,37.9,-85.9667,230.0,America/New_York,1945-03-01,2023-11-04,1945-03-01,2022-04-25,1945-01-01,2022-01-01,KY
Barkley Regional Airport,US,KY,72435,KPAH,37.05,-88.7667,125.0,America/Chicago,1989-01-01,2023-11-04,1949-08-12,2023-10-31,1949-01-01,2022-01-01,KY
Fort Campbell U. S. Army Airfield,US,KY,74671,KHOP,36.6667,-87.5,174.0,America/Chicago,1943-07-15,2023-11-04,1943-07-16,2022-04-25,1943-01-01,2021-01-01,KY
Bowling Green / Eastland Park,US,KY,,KBWG,36.9645,-86.4197,167.0,America/Chicago,1973-01-01,2023-11-04,1973-01-02,2022-04-24,1999-01-01,2021-01-01,KY
London-Corbin / Sublimity City,US,KY,,KLOZ,37.0869,-84.0774,369.0,America/New_York,1991-03-21,2023-11-04,1996-09-20,2022-04-24,1999-01-01,2022-01-01,KY
Sturgis,US,KY,,KTWT,37.5418,-87.9544,113.0,America/Chicago,1944-03-06,2023-11-04,1944-03-25,2022-04-24,1944-01-01,2022-01-01,KY
New Orleans Airport,US,LA,72231,KMSY,30.0,-90.0833,2.0,America/Chicago,1945-10-01,2023-11-04,1945-10-01,2023-10-31,1945-01-01,2022-01-01,LA
Boothville,US,LA,,KBVE,29.3333,-89.4,0.0,America/Chicago,1973-01-01,2019-12-02,1965-02-16,2019-12-02,1965-01-01,2019-01-01,LA
Slidell,US,LA,72233,KLIX,30.3333,-89.8167,8.0,America/Chicago,,,1988-09-01,2023-11-01,1988-01-01,2022-01-01,LA
Fort Polk,US,LA,72239,KPOE,31.05,-93.1833,101.0,America/Chicago,1962-09-03,2023-11-04,1955-10-27,2022-04-25,1955-01-01,2021-01-01,LA
Lake Charles Regional Airport,US,LA,72240,KLCH,30.2,-93.3833,5.0,America/Chicago,1942-05-02,2023-11-04,1942-05-02,2023-10-31,1942-01-01,2022-01-01,LA
Shreveport Regional Airport,US,LA,72248,KSHV,32.45,-93.0,79.0,America/Chicago,1973-01-01,2023-11-04,1939-07-01,2023-10-31,1939-01-01,2022-01-01,LA
Alexandria International Airport,US,LA,74754,KAEX,31.55,-92.9333,27.0,America/Chicago,1943-09-01,2023-11-04,1943-09-02,2022-04-25,1943-01-01,2022-01-01,LA
New Iberia / New Horizon Mobile Home Park,US,LA,,KARA,30.0378,-91.8839,7.0,America/Chicago,1981-07-24,2023-11-04,1998-05-09,2022-04-24,2020-01-01,2022-01-01,LA
Alexandria / Green Gables,US,LA,,KESF,31.3949,-92.2958,34.0,America/Chicago,1941-07-01,2023-11-04,1941-09-11,2022-04-24,1943-01-01,2021-01-01,LA
Lafayette / Walroy,US,LA,,KLFT,30.2052,-91.9876,13.0,America/Chicago,1945-10-01,2023-11-04,1945-10-02,2022-04-24,1945-01-01,2022-01-01,LA
Monroe / Magenta,US,LA,,KMLU,32.5109,-92.0377,24.0,America/Chicago,1942-10-01,2023-11-04,1942-10-02,2022-04-24,1943-01-01,2022-01-01,LA
New Orleans / Concession,US,LA,,KNBG,29.8272,-90.0266,1.0,America/Chicago,1973-01-01,2023-11-04,1973-01-01,2022-04-24,1981-01-01,2019-01-01,LA
New Orleans / Seabrook,US,LA,,KNEW,30.0424,-90.0282,2.0,America/Chicago,1942-09-01,2023-11-04,1942-09-02,2022-04-24,1942-01-01,2022-01-01,LA
Otis Air National Guard Base,US,MA,72506,KFMH,41.65,-70.5167,40.0,America/New_York,2006-01-01,2023-11-04,1949-01-01,2022-04-25,1949-01-01,2021-01-01,MA
Boston Logan International,US,MA,72509,KBOS,42.3667,-71.0167,6.0,America/New_York,1943-11-21,2023-11-04,1936-01-01,2023-10-31,1936-01-01,2022-01-01,MA
Worcester / West Tatnuck,US,MA,72510,KORH,42.2673,-71.8757,308.0,America/New_York,1973-01-01,2023-11-04,1948-06-01,2023-10-31,1948-01-01,2022-01-01,MA
Bedford Hanscom Field,US,MA,74490,KBED,42.4667,-71.3,41.0,America/New_York,2006-01-01,2023-11-04,1949-01-01,2023-10-30,1949-01-01,2022-01-01,MA
Chicopee Falls / Westover Air Force Base,US,MA,74491,KCEF,42.2,-72.5333,75.0,America/New_York,1941-04-01,2023-11-04,1941-06-06,2022-04-25,1941-01-01,2021-01-01,MA
Blue Hill Obs. Ma.,US,MA,74492,,42.2167,-71.1167,195.0,America/New_York,,,1998-04-01,2023-08-31,1976-01-01,2022-01-01,MA
Nantucket / Surfside,US,MA,74493,KACK,41.2531,-70.0603,14.0,America/New_York,1990-03-14,2023-11-04,1997-06-23,2022-04-25,2005-01-01,2021-01-01,MA
Chatham,US,MA,74494,KCHH,41.6667,-69.9667,14.0,America/New_York,1973-01-01,1995-03-21,1972-08-01,2021-03-31,1972-01-01,2021-01-01,MA
Westfield / Owen District,US,MA,,KBAF,42.1577,-72.7156,82.0,America/New_York,1973-01-05,2023-11-04,1998-08-08,2022-04-24,2005-01-01,2022-01-01,MA
Orange / Partridgeville,US,MA,,KORE,42.5701,-72.2886,169.0,America/New_York,1996-08-09,2023-11-04,1996-08-11,2022-04-24,2005-01-01,2022-01-01,MA
Salisbury / Quail Ridge,US,MD,72398,KSBY,38.3402,-75.5095,16.0,America/New_York,2005-01-01,2023-11-04,1948-07-20,2023-10-31,1948-01-01,2022-01-01,MD
Nas Patuxent River Md,US,MD,72404,KNHK,38.3,-76.0667,12.0,America/New_York,1945-03-01,2023-11-04,1945-03-01,2023-10-30,1945-01-01,2022-01-01,MD
Baltimore-Washington International,US,MD,72406,KBWI,39.1667,-76.6833,45.0,America/New_York,1945-01-01,2023-11-04,1939-07-01,2023-10-31,1939-01-01,2022-01-01,MD
Camp Springs / Andrews Air Force Base,US,MD,74594,KADW,38.8167,-76.85,86.0,America/New_York,1943-06-19,2023-11-04,1943-07-04,2022-04-25,1943-01-01,2021-01-01,MD
Fort Meade / Ft Meade / Portland Station (Historical),US,MD,,KFME,39.0854,-76.7594,46.0,America/New_York,1959-11-13,2023-11-04,1959-11-14,2022-04-24,1959-01-01,2022-01-01,MD
Portland International  Jetport,US,ME,72606,KPWM,43.65,-70.1333,23.0,America/New_York,1973-01-01,2023-11-04,1940-11-07,2023-10-31,1940-01-01,2022-01-01,ME
Bangor / Martells Mobile Home Court,US,ME,72607,KBGR,44.8074,-68.8281,59.0,America/New_York,2010-08-01,2023-11-04,1953-01-01,2023-10-31,1953-01-01,2022-01-01,ME
Greenville,US,ME,72619,KGNR,45.463,-69.5516,427.0,America/New_York,2006-01-01,2023-11-04,1920-01-01,2023-10-31,1920-01-01,2021-01-01,ME
Caribou Municipal Airport,US,ME,72712,KCAR,46.8667,-68.0167,191.0,America/New_York,1973-01-01,2023-11-04,1939-01-16,2023-10-31,1939-01-01,2022-01-01,ME
Presque Isle,US,ME,72713,KPQI,46.6833,-68.05,163.0,America/New_York,1941-11-01,2023-11-04,1941-11-02,2022-04-25,1942-01-01,2022-01-01,ME
"Gray, Me.",US,ME,74389,KGYX,43.9,-70.25,125.0,America/New_York,,,1995-10-01,2023-11-01,1995-01-01,2022-01-01,ME
Augusta,US,ME,,KAUG,44.3206,-69.7973,107.0,America/New_York,1973-01-01,2023-11-04,1973-01-01,2022-04-24,1974-01-01,2022-01-01,ME
Millinocket / Little Italy,US,ME,,KMLT,45.6478,-68.6856,124.0,America/New_York,1943-03-01,2023-11-04,1943-03-02,2022-04-24,1943-01-01,2022-01-01,ME
Detroit Metropolitan,US,MI,72537,KDTW,42.2333,-83.0,195.0,America/Detroit,1942-08-01,2023-11-04,1942-08-01,2023-11-01,1942-01-01,2022-01-01,MI
Capital City Airport,US,MI,72539,KLAN,42.7833,-84.5833,262.0,America/Detroit,1973-01-01,2023-11-04,1948-01-01,2023-10-31,1948-01-01,2022-01-01,MI
Spickard,US,MI,72540,KP35,40.25,-93.7167,271.0,America/Chicago,,,1957-03-17,2023-10-31,1957-01-01,2022-01-01,MI
"Gaylord, Mi.",US,MI,72634,KAPX,44.9167,-84.7167,446.0,America/Detroit,1973-01-01,2001-05-02,1998-08-01,2023-10-31,1998-01-01,2022-01-01,MI
Gerald R. Ford International,US,MI,72635,KGRR,42.8833,-85.5167,242.0,America/Detroit,1973-01-01,2023-11-04,1963-11-24,2023-10-31,1963-01-01,2022-01-01,MI
Muskegon County Airport,US,MI,72636,KMKG,43.1667,-86.2333,191.0,America/Detroit,1973-01-01,2023-11-04,1896-06-02,2023-10-31,1896-01-01,2022-01-01,MI
Flint Bishop International  Airport,US,MI,72637,KFNT,42.9667,-83.0833,238.0,America/Detroit,1973-01-01,2023-11-04,1948-05-02,2023-10-31,1948-01-01,2022-01-01,MI
Roscommon County Airport,US,MI,72638,KHTL,44.35,-84.6667,351.0,America/Detroit,1973-01-01,2023-11-04,1964-07-01,2023-10-31,1964-01-01,2022-01-01,MI
Alpena County Regional Airport,US,MI,72639,KAPN,45.0833,-83.5667,210.0,America/Detroit,1973-01-01,2023-11-04,1916-10-21,2023-10-31,1916-01-01,2022-01-01,MI
Escanaba,US,MI,72648,KESC,45.75,-87.0333,180.0,America/Detroit,2006-01-01,2023-11-04,1871-05-25,2023-11-01,1948-01-01,2022-01-01,MI
Sault Ste. Marie Muni,US,MI,72734,KANJ,46.4833,-84.35,218.0,America/Detroit,1973-01-01,2023-11-04,1931-01-01,2023-10-31,1931-01-01,2022-01-01,MI
Marquette,US,MI,72743,KMQT,46.5333,-87.55,434.0,America/Detroit,1973-01-01,2023-09-10,1857-09-01,2023-11-01,1857-01-01,2022-01-01,MI
Hancock Houghton Cty. Memo,US,MI,72744,KCMX,47.1667,-88.4833,334.0,America/Detroit,1973-01-01,2023-11-04,1948-01-01,2023-10-30,1948-01-01,2022-01-01,MI
Battle Creek / Avenue A Mobile Home Estates,US,MI,,KBTL,42.3073,-85.2515,290.0,America/Detroit,1942-10-01,2023-11-04,1942-11-02,2022-04-24,1942-01-01,2022-01-01,MI
Cadillac / Cadillac Leisure Mobile Home Community,US,MI,,KCAD,44.2753,-85.4189,398.0,America/Detroit,1990-07-24,2023-11-04,1993-12-02,2022-04-24,2005-01-01,2022-01-01,MI
Detroit / Hamtramck,US,MI,,KDET,42.4092,-83.0099,191.0,America/Detroit,1973-01-01,2023-11-04,1973-01-01,2022-04-24,1981-01-01,2022-01-01,MI
Jackson / Coffman Trailer Court,US,MI,,KJXN,42.2604,-84.4604,305.0,America/Detroit,1973-01-01,2023-11-04,1973-01-03,2022-04-24,2000-01-01,2022-01-01,MI
Saginaw / Falconview Estates Mobile Home Park,US,MI,,KMBS,43.5329,-84.0796,204.0,America/Detroit,1973-01-01,2023-11-04,1973-01-01,2022-04-24,1974-01-01,2022-01-01,MI
Oscoda / Whispering Woods Mobile Home Community,US,MI,,KOSC,44.4515,-83.3942,193.0,America/Detroit,1943-07-01,2023-11-04,1943-07-02,2022-04-25,1943-01-01,2022-01-01,MI
Pellston,US,MI,,KPLN,45.5709,-84.7967,220.0,America/Detroit,1973-01-01,2023-11-04,1973-01-01,2022-04-24,2000-01-01,2021-01-01,MI
Traverse City / Treverse City [Misspelling] / Town And Country Mobile Village,US,MI,,KTVC,44.7416,-85.5824,190.0,America/Detroit,1973-01-01,2023-11-04,1973-01-02,2022-04-24,1981-01-01,2022-01-01,MI
Detroit / Denton,US,MI,,KYIP,42.2393,-83.531,218.0,America/Detroit,1973-01-01,2023-11-04,1973-01-03,2022-04-24,2005-01-01,2022-01-01,MI
Rochester International Airport,US,MN,72644,KRST,43.9,-92.5,401.0,America/Chicago,1973-01-01,2023-11-04,1893-01-18,2023-10-31,1893-01-01,2022-01-01,MN
Saint Cloud / St Cloud / Cable,US,MN,72655,KSTC,45.5466,-94.0599,314.0,America/Chicago,1973-01-01,2023-11-04,1904-09-01,2023-10-31,1904-01-01,2022-01-01,MN
Minneapolis-St Paul International,US,MN,72658,KMSP,44.8667,-93.05,256.0,America/Chicago,1945-01-01,2023-11-04,1938-04-09,2023-10-31,1938-01-01,2022-01-01,MN
Duluth International Airport,US,MN,72745,KDLH,46.8333,-92.2167,435.0,America/Chicago,1948-01-01,2023-11-04,1948-01-01,2023-10-31,1948-01-01,2022-01-01,MN
Falls International Airport,US,MN,72747,KINL,48.5667,-93.4,361.0,America/Chicago,1973-01-01,2023-11-04,1906-07-01,2023-10-31,1906-01-01,2022-01-01,MN
Bemidji,US,MN,72755,KBJI,47.5,-94.9333,423.0,America/Chicago,2006-01-01,2023-11-04,1896-02-01,2023-10-31,1896-01-01,2022-01-01,MN
Alexandria / Mobile Park Estates,US,MN,,KAXN,45.8663,-95.3947,434.0,America/Chicago,1973-01-01,2023-11-04,1973-01-01,2022-04-24,1999-01-01,2022-01-01,MN
Baudette,US,MN,,KBDE,48.7284,-94.6122,331.0,America/Chicago,1983-11-04,2023-11-04,1995-02-11,2022-04-24,1998-01-01,2022-01-01,MN
Hibbing-Chisholm / Wilpen,US,MN,,KHIB,47.3866,-92.839,413.0,America/Chicago,1973-01-01,2023-11-04,1973-01-01,2022-04-24,1973-01-01,2022-01-01,MN
Park Rapids,US,MN,,KPKD,46.9007,-95.0731,440.0,America/Chicago,1990-01-11,2023-11-04,1995-07-05,2022-04-24,1998-01-01,2022-01-01,MN
Saint Paul,US,MN,,KSTP,44.9346,-93.0603,215.0,America/Chicago,1983-11-03,2023-11-04,1991-12-16,2022-04-24,2005-01-01,2022-01-01,MN
Poplar Bluff / Green Forest,US,MO,72330,KP02,36.7667,-90.4667,146.0,America/Chicago,2006-01-01,2023-09-10,1997-12-12,2023-10-31,1998-01-01,2022-01-01,MO
"West Plains, Mo",US,MO,72348,,36.7333,-91.85,307.0,America/Chicago,,,1948-07-01,2023-11-01,1948-01-01,2022-01-01,MO
Monette Mo.,US,MO,72349,,36.8833,-93.9,437.0,America/Chicago,,,1972-09-01,2023-11-01,1972-01-01,2022-01-01,MO
Springfield-Branson National,US,MO,72440,KSGF,37.2333,-93.05,386.0,America/Chicago,1973-01-01,2023-11-04,1940-08-01,2023-10-31,1940-01-01,2022-01-01,MO
Rolla / Vichy,US,MO,72442,KVIH,38.1274,-91.7695,350.0,America/Chicago,2005-01-01,2023-11-04,1948-01-01,2023-10-31,1948-01-01,2022-01-01,MO
Columbia Regional Airport,US,MO,72445,KCOU,38.8167,-92.2167,271.0,America/Chicago,1973-01-01,2023-11-04,1969-11-01,2023-10-30,1965-01-01,2022-01-01,MO
Kansas City International Airport,US,MO,72446,KMCI,39.2972,-94.7306,313.0,America/Chicago,1973-01-01,2023-11-04,1972-10-01,2023-10-31,1972-01-01,2022-01-01,MO
Rosecrans Memorial Airport,US,MO,72449,KSTJ,39.7667,-94.0833,252.0,America/Chicago,1973-01-01,2023-11-04,1948-01-01,2023-10-31,1948-01-01,2022-01-01,MO
"Conway, Mo.",US,MO,74550,KTBN,37.5167,-92.7,390.0,America/Chicago,1963-03-20,2023-11-04,1963-03-21,2022-04-21,1963-01-01,2022-01-01,MO
Cape Girardeau / Scott City,US,MO,,KCGI,37.2253,-89.5708,104.0,America/Chicago,1973-01-01,2023-11-04,1973-01-01,2022-04-24,1975-01-01,2021-01-01,MO
Farmington,US,MO,,KFAM,37.761,-90.4286,288.0,America/Chicago,1995-02-10,2023-11-04,1995-02-11,2022-04-24,2006-01-01,2021-01-01,MO
Kansas City,US,MO,,KGVW,38.8442,-94.5603,0.0,America/Chicago,1954-03-27,2023-11-04,1954-03-28,2022-04-24,1954-01-01,1977-01-01,MO
Kirksville / Millard,US,MO,,KIRK,40.0935,-92.5449,294.0,America/Chicago,1973-01-01,2023-11-04,1973-01-01,2022-04-24,2004-01-01,2022-01-01,MO
Joplin / Airport Drive,US,MO,,KJLN,37.1518,-94.4983,299.0,America/Chicago,1973-01-01,2023-11-04,1973-01-01,2022-04-24,1999-01-01,2021-01-01,MO
Kansas City / Harlem,US,MO,,KMKC,39.1232,-94.5928,230.0,America/Chicago,1990-02-08,2023-11-04,1990-02-09,2022-04-24,2005-01-01,2021-01-01,MO
St Louis / St. Louis / Stevens,US,MO,,KSUS,38.6621,-90.6521,141.0,America/Chicago,1973-01-01,2023-11-04,1986-11-08,2022-04-24,1987-01-01,2021-01-01,MO
Knob Noster / Whiteman Air Force Base,US,MO,,KSZL,38.7303,-93.548,265.0,America/Chicago,1942-12-02,2023-11-04,1942-12-02,2022-04-24,1943-01-01,2021-01-01,MO
Meridian Key Field,US,MS,72234,KMEI,32.3333,-88.75,91.0,America/Chicago,1942-03-01,2023-11-04,1942-03-01,2023-10-31,1942-01-01,2022-01-01,MS
Jackson Airport,US,MS,72235,KJAN,32.3167,-90.0667,105.0,America/Chicago,1942-09-01,2023-11-04,1942-09-01,2023-10-31,1942-01-01,2022-01-01,MS
Tupelo Regional Airport,US,MS,72332,KTUP,34.2667,-88.1,105.0,America/Chicago,1992-01-01,2023-11-04,1962-11-08,2023-10-31,1962-01-01,2022-01-01,MS
Jackson / Northwest Hills,US,MS,72419,KHKS,32.3348,-90.2225,104.0,America/Chicago,2005-01-01,2023-11-04,1981-01-01,2023-10-31,1981-01-01,2022-01-01,MS
Gulfport / Kathy Mobile Park,US,MS,74757,KGPT,30.4073,-89.0701,9.0,America/Chicago,2005-01-01,2023-11-04,1998-08-08,2023-10-31,1998-01-01,2022-01-01,MS
Greenville / Brighton,US,MS,74768,KGLH,33.4829,-90.9856,40.0,America/Chicago,2005-01-01,2023-11-04,1958-06-01,2022-04-25,1959-01-01,2022-01-01,MS
Biloxi / B And H Mobile Home Park,US,MS,,KBIX,30.4104,-88.9244,10.0,America/Chicago,1942-05-09,2023-11-04,1942-05-10,2022-04-24,1942-01-01,2021-01-01,MS
Columbus / Columbus Air Force Base,US,MS,,KCBM,33.6452,-88.4459,66.0,America/Chicago,1942-03-01,2023-11-04,1942-03-02,2022-04-24,1942-01-01,2021-01-01,MS
McComb / Fernwood,US,MS,,KMCB,31.1784,-90.4719,126.0,America/Chicago,1973-01-01,2023-11-04,1973-01-01,2022-04-24,2001-01-01,2022-01-01,MS
Meridian / Kemper Springs,US,MS,,KNMM,32.5535,-88.5553,96.0,America/Chicago,1973-01-01,2023-11-04,1973-01-01,2022-04-24,1981-01-01,2021-01-01,MS
Olive Branch / Bleak (Historical),US,MS,,KOLV,34.9787,-89.7869,123.0,America/Chicago,1941-10-13,2023-11-04,1941-10-14,2022-04-24,1942-01-01,2022-01-01,MS
Logan International Airport,US,MT,72677,KBIL,45.8167,-108.55,1112.0,America/Denver,1935-05-01,2023-11-04,1935-05-01,2023-10-31,1935-01-01,2022-01-01,MT
Glasgow International Airport,US,MT,72768,KGGW,48.2167,-106.6167,699.0,America/Denver,1942-12-10,2023-11-04,1942-12-10,2023-10-31,1943-01-01,2022-01-01,MT
Cut Bank / Little Browning,US,MT,72769,KCTB,48.6084,-112.3761,1176.0,America/Denver,2005-01-01,2023-11-04,1903-12-01,2023-10-31,1903-01-01,2022-01-01,MT
Dillon / Bishop Place,US,MT,72770,KDLN,45.2554,-112.5525,1599.0,America/Denver,1973-01-01,2023-11-04,1940-01-01,2023-10-31,1940-01-01,2022-01-01,MT
Helena Regional Airport,US,MT,72772,KHLN,46.6,-111.9667,1180.0,America/Denver,1973-01-01,2023-11-04,1938-04-01,2023-10-31,1938-01-01,2022-01-01,MT
Missoula International Airport,US,MT,72773,KMSO,46.9167,-114.1,976.0,America/Denver,1973-01-01,2023-11-04,1948-01-01,2023-10-31,1948-01-01,2022-01-01,MT
Butte / Valley Vista Mobile Home Community,US,MT,72774,KBTM,45.9548,-112.4975,1692.0,America/Denver,1977-03-01,2023-11-04,1894-04-02,2023-10-31,1894-01-01,2022-01-01,MT
Great Falls International,US,MT,72775,KGTF,47.4667,-111.3833,1120.0,America/Denver,1973-01-01,2023-11-04,1937-04-01,2023-10-31,1937-01-01,2022-01-01,MT
Havre City-County Airport,US,MT,72777,KHVR,48.55,-109.7667,789.0,America/Denver,1973-01-01,2023-11-04,1961-02-01,2023-10-31,1961-01-01,2022-01-01,MT
Glacier Park International  Airport,US,MT,72779,KGPI,48.3,-114.2667,906.0,America/Denver,1973-01-01,2023-11-04,1896-06-01,2023-10-31,1896-01-01,2022-01-01,MT
Miles City,US,MT,74230,KMLS,46.4333,-105.8833,801.0,America/Denver,1984-01-01,2023-11-04,1937-01-16,2023-10-31,1937-01-01,2022-01-01,MT
Bozeman / Belgrade Village Mobile Home Park,US,MT,,KBZN,45.7776,-111.152,1363.0,America/Denver,1973-01-01,2023-11-04,1973-01-01,2022-04-24,1999-01-01,2022-01-01,MT
Great Falls / Malmstrom Air Force Base,US,MT,,KGFA,47.5047,-111.1873,1058.0,America/Denver,1942-12-01,2023-11-04,1942-12-02,2022-04-24,1943-01-01,2020-01-01,MT
Livingston / Urback Place,US,MT,,KLVM,45.6994,-110.4483,1420.0,America/Denver,1973-01-01,2023-11-04,1973-01-01,2022-04-24,2000-01-01,2021-01-01,MT
Lewistown / Lewlistown [Misspelling] / Lewistown Heights,US,MT,,KLWT,47.0493,-109.4667,1271.0,America/Denver,1942-04-01,2023-11-04,1942-04-02,2022-04-24,1942-01-01,2022-01-01,MT
Hickory / Longview,US,NC,72301,KHKY,35.7411,-81.3895,363.0,America/New_York,2005-01-01,2023-11-04,1949-01-01,2023-10-31,1949-01-01,2022-01-01,NC
Wilmington / The Palms Mobile Home Park,US,NC,72302,KILM,34.2706,-77.9026,10.0,America/New_York,1991-01-01,2023-11-04,1948-01-01,2023-10-31,1948-01-01,2022-01-01,NC
Pope Air Force Base,US,NC,72303,KPOB,35.1667,-79.0333,61.0,America/New_York,1937-07-03,2023-11-04,1937-07-08,2022-04-25,1937-01-01,2022-01-01,NC
Cape Hatteras,US,NC,72304,KHAT,35.2667,-75.55,2.0,America/New_York,,,1957-03-01,2023-10-31,1951-01-01,2022-01-01,NC
Raleigh-Durham International  Airport,US,NC,72306,KRDU,35.9,-78.7667,133.0,America/New_York,1945-11-01,2023-11-04,1944-05-18,2023-10-31,1944-01-01,2022-01-01,NC
Elizabeth City / Hickory Village - Mobile Home Park,US,NC,72307,KECG,36.2606,-76.1746,3.0,America/New_York,1990-03-14,2023-11-04,1948-09-01,2023-10-31,1948-01-01,2022-01-01,NC
"Cherry Point, Marine Corps Air Station",US,NC,72309,KNKT,34.8833,-76.8667,8.0,America/New_York,1973-01-01,2023-11-04,1945-03-01,2023-06-20,1945-01-01,2022-01-01,NC
Charlotte/Douglas International Airport,US,NC,72314,KCLT,35.214,-80.9431,228.0,America/New_York,1941-07-22,2023-11-04,1939-07-01,2023-10-31,1939-01-01,2022-01-01,NC
Asheville Regional Airport,US,NC,72315,KAVL,35.4333,-82.0333,660.0,America/New_York,1973-01-01,2023-11-04,1946-01-01,2023-10-31,1946-01-01,2022-01-01,NC
Piedmont Triad International  Airport,US,NC,72317,KGSO,36.1,-79.95,282.0,America/New_York,1945-11-01,2023-11-04,1928-11-01,2023-10-31,1928-01-01,2022-01-01,NC
Fort Bragg / Simmons Army Airfield,US,NC,74693,KFBG,35.1333,-78.9333,74.0,America/New_York,1961-07-01,2023-11-04,1961-07-01,2022-04-25,1961-01-01,2022-01-01,NC
New Bern / Circle L Mobile Home Park,US,NC,,KEWN,35.073,-77.0429,6.0,America/New_York,1973-01-01,2023-11-04,1973-01-01,2022-04-24,1999-01-01,2022-01-01,NC
Goldsboro / Sandy Springs,US,NC,,KGSB,35.3394,-77.9606,33.0,America/New_York,1943-06-01,2023-11-04,1943-08-12,2022-04-24,1943-01-01,2021-01-01,NC
Hatteras / Frisco,US,NC,,KHSE,35.2328,-75.6178,5.0,America/New_York,1996-01-01,2023-11-04,1996-01-01,2022-04-24,1996-01-01,2021-01-01,NC
Jacksonville / Montford Point,US,NC,,KNCA,34.7084,-77.4397,8.0,America/New_York,1973-01-01,2023-11-04,1973-01-01,2022-04-24,1981-01-01,2021-01-01,NC
Swansboro / Bogue,US,NC,,KNJM,34.6905,-77.0297,7.0,America/New_York,1987-05-04,2023-11-04,1992-05-07,2022-04-24,2008-01-01,2021-01-01,NC
Hector International Airport,US,ND,72753,KFAR,46.9333,-96.8167,274.0,America/Chicago,1948-01-01,2023-11-04,1891-05-19,2023-10-31,1891-01-01,2022-01-01,ND
Dickinson / Eland,US,ND,72763,KDIK,46.7973,-102.8019,790.0,America/Denver,2005-01-01,2023-11-04,1938-11-14,2023-10-31,1948-01-01,2022-01-01,ND
Bismarck Municipal Airport,US,ND,72764,KBIS,46.7833,-100.75,511.0,America/Chicago,1936-07-01,2023-11-04,1936-07-01,2023-10-31,1936-01-01,2022-01-01,ND
Sloulin Field International  Airport,US,ND,72767,KISN,48.1833,-103.65,604.0,America/Chicago,1973-01-01,2019-10-18,1894-01-01,2019-12-29,1894-01-01,2019-01-01,ND
Jamestown,US,ND,,KJMS,46.9297,-98.6782,457.0,America/Chicago,1973-01-01,2023-11-04,1973-01-01,2022-04-24,2000-01-01,2022-01-01,ND
Minot / Minot Air Force Base,US,ND,,KMIB,48.4158,-101.358,508.0,America/Chicago,1959-10-01,2023-11-04,1959-10-02,2022-04-24,1959-01-01,2022-01-01,ND
Minot,US,ND,,KMOT,48.2576,-101.278,523.0,America/Chicago,1973-01-01,2023-11-04,1973-01-01,2022-04-24,1973-01-01,2022-01-01,ND
Omaha Eppley Airfield,US,NE,72550,KOMA,41.3,-95.9,300.0,America/Chicago,1975-01-01,2023-11-04,1948-01-01,2023-10-31,1948-01-01,2022-01-01,NE
Lincoln Municipal Airport,US,NE,72551,KLNK,40.8333,-96.7647,372.0,America/Chicago,1942-10-01,2023-11-04,1942-10-01,2023-10-31,1942-01-01,2022-01-01,NE
Central Nebraska Regional,US,NE,72552,KGRI,40.9667,-98.15,563.0,America/Chicago,1944-03-01,2023-11-04,1938-03-21,2023-10-31,1938-01-01,2022-01-01,NE
Omaha / Offutt Air Force Base,US,NE,72554,KOFF,41.1167,-95.9,319.0,America/Chicago,1948-01-12,2023-11-04,1948-01-13,2022-04-25,1948-01-01,2020-01-01,NE
Karl Stefan Memorial Airport,US,NE,72556,KOFK,41.9833,-97.4333,479.0,America/Chicago,1973-01-01,2023-11-04,1945-10-01,2023-10-31,1945-01-01,2022-01-01,NE
Sidney Municipal Airport,US,NE,72561,KSNY,41.1,-102.9833,1315.0,America/Denver,1977-08-27,2023-11-04,1948-01-01,2023-10-30,1948-01-01,2022-01-01,NE
North Platte Regional Airport,US,NE,72562,KLBF,41.1167,-100.6667,847.0,America/Chicago,1973-01-01,2023-11-04,1948-01-01,2023-10-31,1948-01-01,2022-01-01,NE
Scottsbluff Heilig Field,US,NE,72566,KBFF,41.8667,-103.6,1209.0,America/Denver,1943-01-13,2023-11-04,1893-01-01,2023-10-30,1893-01-01,2022-01-01,NE
"Miller Field - Valentine, Ne",US,NE,72567,KVTN,42.8667,-100.55,789.0,America/Chicago,1948-01-01,2023-11-04,1948-01-01,2023-10-31,1948-01-01,2022-01-01,NE
Chadron / J And L Trailer Court,US,NE,,KCDR,42.8376,-103.0954,1005.0,America/Denver,1973-01-01,2023-11-04,1973-01-01,2022-04-24,2005-01-01,2022-01-01,NE
"Concord, Concord Municipal Airport",US,NH,72605,KCON,43.1833,-71.5,105.0,America/New_York,1973-01-01,2023-11-04,1939-04-01,2023-10-31,1939-01-01,2022-01-01,NH
Lebanon / West Lebanon,US,NH,72611,KLEB,43.6261,-72.3042,184.0,America/New_York,1993-01-01,2023-11-04,1993-01-03,2022-04-25,2005-01-01,2022-01-01,NH
Mount Washington,US,NH,72613,KMWN,44.2667,-71.3,1909.0,America/New_York,2006-01-01,2023-11-04,1948-01-01,2023-11-01,1948-01-01,2022-01-01,NH
Berlin Municipal Airport,US,NH,72616,KBML,44.5833,-71.0167,353.0,America/New_York,2006-01-01,2023-11-04,1996-07-01,2023-10-30,1996-01-01,2022-01-01,NH
Atlantic City International,US,NJ,72407,KACY,39.4667,-74.0833,23.0,America/New_York,1947-01-01,2023-11-04,1947-01-01,2023-11-01,1947-01-01,2022-01-01,NJ
Lakehurst Naval Air Station,US,NJ,72409,KNEL,40.0333,-74.3167,31.0,America/New_York,1973-01-01,2023-08-18,1973-01-01,2022-04-21,2010-01-01,2021-01-01,NJ
Newark Airport,US,NJ,72502,KEWR,40.6833,-74.0,5.0,America/New_York,1973-01-01,2023-11-04,1893-01-01,2023-10-31,1893-01-01,2022-01-01,NJ
Belmar / Carmerville,US,NJ,,KBLM,40.1868,-74.1246,47.0,America/New_York,1983-04-21,2023-11-04,1992-04-17,2022-04-24,2020-01-01,2022-01-01,NJ
Millville / Farmingdale,US,NJ,,KMIV,39.3678,-75.0722,26.0,America/New_York,1973-01-01,2023-11-04,1973-01-02,2022-04-24,1999-01-01,2021-01-01,NJ
Teterboro,US,NJ,,KTEB,40.8501,-74.0608,3.0,America/New_York,1973-01-01,2023-11-04,1973-01-01,2022-04-24,2005-01-01,2022-01-01,NJ
Trenton / Altura,US,NJ,,KTTN,40.2767,-74.8135,65.0,America/New_York,1973-01-01,2023-11-04,1975-07-10,2022-04-24,2005-01-01,2021-01-01,NJ
Wrightstown / Pointville,US,NJ,,KWRI,40.0156,-74.5917,40.0,America/New_York,1942-08-01,2023-11-04,1942-08-12,2022-04-24,1942-01-01,2021-01-01,NJ
Roswell Industrial Air Centr,US,NM,72268,KROW,33.3,-104.5333,1118.0,America/Denver,1942-07-13,2023-11-04,1942-07-13,2023-10-31,1942-01-01,2022-01-01,NM
Truth Or Consequences Muni,US,NM,72271,KTCS,33.2333,-107.2667,1478.0,America/Denver,1979-01-01,2023-11-04,1950-05-26,2023-10-31,1950-01-01,2022-01-01,NM
Silver City / Grant,US,NM,72272,KSVC,32.6333,-108.15,1659.0,America/Denver,2005-01-01,2023-11-04,1948-07-02,2023-10-31,1948-01-01,2022-01-01,NM
Clayton Municipal Airpark,US,NM,72360,KCAO,36.45,-103.15,1513.0,America/Denver,1978-01-01,2023-11-04,1896-02-01,2023-10-31,1896-01-01,2022-01-01,NM
Albuquerque International  Airport,US,NM,72365,KABQ,35.0333,-106.6,1631.0,America/Denver,1941-07-01,2023-11-04,1931-03-01,2023-10-31,1931-01-01,2022-01-01,NM
Holloman Air Force Base,US,NM,74732,KHMN,32.85,-106.1,1248.0,America/Denver,2006-01-03,2023-11-04,1949-01-01,2022-04-24,1949-01-01,2018-01-01,NM
Carlsbad / Livingston Wheeler,US,NM,,KCNM,32.3375,-104.2633,1004.0,America/Denver,1942-09-10,2023-11-04,1942-09-11,2022-04-24,1942-01-01,2021-01-01,NM
Clovis / Cannon Air Force Base,US,NM,,KCVS,34.3829,-103.3222,1309.0,America/Denver,1943-01-25,2023-11-04,1943-01-26,2022-04-24,1943-01-01,2021-01-01,NM
Farmington,US,NM,,KFMN,36.7413,-108.2299,1678.0,America/Denver,1973-01-01,2023-11-04,1973-01-01,2022-04-24,1982-01-01,2021-01-01,NM
Grants-Milan,US,NM,,KGNT,35.1673,-107.9021,1993.0,America/Denver,1948-01-01,2023-11-04,1948-01-02,2022-04-24,1948-01-01,2022-01-01,NM
Gallup / Allison,US,NM,,KGUP,35.5111,-108.7893,1973.0,America/Denver,1973-01-01,2023-11-04,1973-01-09,2022-04-24,1981-01-01,2021-01-01,NM
Hobbs,US,NM,,KHOB,32.6875,-103.217,1116.0,America/Denver,1942-11-01,2023-11-04,1942-11-02,2022-04-24,1943-01-01,2022-01-01,NM
Las Vegas / Arriba,US,NM,,KLVS,35.6542,-105.1424,2096.0,America/Denver,1946-08-01,2023-11-04,1946-08-02,2022-04-24,1946-01-01,2021-01-01,NM
Santa Fe / Cieneguilla,US,NM,,KSAF,35.6171,-106.0894,1935.0,America/Denver,1946-08-01,2023-11-04,1946-08-02,2022-04-24,1946-01-01,2021-01-01,NM
Elko / Coin,US,NV,70580,KEKO,40.8249,-115.7917,1567.0,America/Los_Angeles,1977-01-01,2023-11-04,1977-02-26,2022-04-24,1981-01-01,2021-01-01,NV
McCarran International Airport,US,NV,72386,KLAS,36.1167,-115.2667,663.0,America/Los_Angeles,1973-01-01,2023-11-04,1948-09-06,2023-10-31,1948-01-01,2022-01-01,NV
Desert Rock Airport,US,NV,72387,KDRA,36.6333,-116.0333,1010.0,America/Los_Angeles,1978-05-15,2023-11-04,1978-05-15,2023-10-31,1978-01-01,2022-01-01,NV
Eureka / Eunice Place,US,NV,72477,K05U,39.6042,-116.0051,1816.0,America/Los_Angeles,2017-01-21,2023-11-04,1997-08-13,2023-10-31,1997-01-01,2022-01-01,NV
Tonopah / Valley View,US,NV,72485,KTPH,38.0602,-117.0868,1655.0,America/Los_Angeles,1942-10-01,2023-11-04,1942-10-02,2022-04-24,1943-01-01,2022-01-01,NV
Ely Airport (Yelland Field),US,NV,72486,KELY,39.3,-114.85,1907.0,America/Los_Angeles,1973-01-01,2023-11-04,1888-04-01,2023-10-31,1888-01-01,2022-01-01,NV
Reno/Tahoe International  Airport,US,NV,72488,KRNO,39.4833,-119.7667,1345.0,America/Los_Angeles,1943-01-05,2023-11-04,1937-03-01,2023-10-31,1937-01-01,2022-01-01,NV
Lovelock / Granite Point,US,NV,72580,KLOL,40.0664,-118.5652,1191.0,America/Los_Angeles,1977-01-01,2023-11-04,1977-02-26,2023-11-01,1981-01-01,2022-01-01,NV
Winnemucca Municipal Airport,US,NV,72583,KWMC,40.9,-117.8,1312.0,America/Los_Angeles,1973-01-01,2023-11-04,1877-07-01,2023-10-31,1877-01-01,2022-01-01,NV
Fallon / Fallon Station,US,NV,,KNFL,39.4178,-118.6986,1199.0,America/Los_Angeles,1973-01-01,2023-11-04,1984-07-20,2022-04-24,1990-01-01,2021-01-01,NV
LaGuardia Airport,US,NY,72503,KLGA,40.7833,-73.05,7.0,America/New_York,1973-01-01,2023-11-04,1939-10-07,2023-10-31,1939-01-01,2022-01-01,NY
Islip / Lakeland,US,NY,72505,KISP,40.7953,-73.1002,30.0,America/New_York,1973-01-01,2023-11-04,1963-09-05,2023-10-31,1963-01-01,2022-01-01,NY
Binghamton Regional Airport,US,NY,72515,KBGM,42.2,-75.15,499.0,America/New_York,1973-01-01,2023-11-04,1951-05-25,2023-10-31,1951-01-01,2022-01-01,NY
Albany International Airport,US,NY,72518,KALB,42.75,-73.1333,87.0,America/New_York,1946-01-01,2023-11-04,1938-06-01,2023-10-31,1938-01-01,2022-01-01,NY
Syracuse Hancock International  Airport,US,NY,72519,KSYR,43.1167,-76.1,125.0,America/New_York,1942-10-01,2023-11-04,1938-05-01,2023-10-31,1938-01-01,2022-01-01,NY
Glens Falls / Dix Mobile Home Park,US,NY,72522,KGFL,43.3412,-73.6103,100.0,America/New_York,1973-01-01,2023-11-04,1944-05-01,2023-10-31,1944-01-01,2022-01-01,NY
"Dansville / Municipal, Ny.",US,NY,72523,,42.5667,-77.7167,202.0,America/New_York,,,1945-11-01,2023-10-30,1945-01-01,2022-01-01,NY
Buffalo Airport,US,NY,72528,KBUF,42.9333,-78.7333,221.0,America/New_York,1942-02-01,2023-11-04,1938-05-01,2023-10-31,1938-01-01,2022-01-01,NY
Greater Rochester International,US,NY,72529,KROC,43.1167,-77.6833,170.0,America/New_York,1973-01-01,2023-11-04,1926-01-02,2023-10-31,1926-01-01,2022-01-01,NY
Fort Drum / Wheeler-Sack U. S. Army Airfield,US,NY,74370,KGTB,44.05,-75.7333,207.0,America/New_York,2006-01-01,2023-11-04,1952-01-04,2022-04-25,1953-01-01,2022-01-01,NY
"Verona, Ny. Af",US,NY,74480,KRME,43.1333,-75.6,0.0,America/New_York,1942-07-01,2023-11-04,1942-07-02,2022-04-25,1942-01-01,2022-01-01,NY
John F. Kennedy Airport,US,NY,74486,KJFK,40.6333,-73.7667,4.0,America/New_York,1973-01-01,2023-11-04,1948-07-17,2023-10-31,1948-01-01,2022-01-01,NY
Watertown / Breezy Knoll Mobile Home Park,US,NY,,KART,43.9919,-76.0217,100.0,America/New_York,1949-05-01,2023-11-04,1949-05-05,2022-04-24,1949-01-01,2022-01-01,NY
Elmira / Big Flats Airport,US,NY,,KELM,42.1599,-76.8916,291.0,America/New_York,1973-01-01,2023-11-04,1973-01-01,2022-04-24,2005-01-01,2021-01-01,NY
Westhampton Beach / Suffolk Pines,US,NY,,KFOK,40.8437,-72.6318,20.0,America/New_York,1943-07-18,2023-11-04,1943-09-08,2022-04-24,1943-01-01,2021-01-01,NY
White Plains / Sarosca Farm Estates,US,NY,,KHPN,41.0669,-73.7076,134.0,America/New_York,1973-01-01,2023-11-04,1973-01-02,2022-04-24,1974-01-01,2021-01-01,NY
Niagara Falls / Walmore,US,NY,,KIAG,43.1073,-78.9462,180.0,America/New_York,1951-06-12,2023-11-04,1951-06-13,2022-04-24,1951-01-01,2022-01-01,NY
Massena / Massena Center,US,NY,,KMSS,44.9358,-74.8456,68.0,America/New_York,1991-01-01,2023-11-04,1991-01-01,2022-04-24,1991-01-01,2022-01-01,NY
New York City / Yorkville,US,NY,,KNYC,40.7789,-73.9692,3.0,America/New_York,1943-12-01,2023-11-04,1943-12-02,2022-04-24,1944-01-01,2021-01-01,NY
Plattsburgh / Lts Mobile Home Park,US,NY,,KPBG,44.6509,-73.4681,71.0,America/New_York,1956-01-15,2023-11-04,1956-01-16,2022-04-24,1956-01-01,2021-01-01,NY
Poughkeepsie  /  New Hackensack,US,NY,,KPOU,41.6266,-73.8842,50.0,America/New_York,1973-01-01,2023-11-04,1973-01-04,2022-04-24,1974-01-01,2022-01-01,NY
Mansfield / Amoy,US,OH,72420,KMFD,40.8214,-82.5166,395.0,America/New_York,2005-01-01,2023-11-04,1948-08-01,2023-11-01,1948-01-01,2022-01-01,OH
"Wilmington, Oh.",US,OH,72426,KILN,39.4167,-83.8167,317.0,America/New_York,1943-08-01,2023-11-04,1943-08-18,2023-10-31,1943-01-01,2022-01-01,OH
Port Columbus International  Airport,US,OH,72428,KCMH,40.0,-82.05,248.0,America/New_York,1945-04-01,2023-11-04,1945-04-01,2023-10-31,1945-01-01,2022-01-01,OH
Cox Dayton International,US,OH,72429,KDAY,39.9,-84.2167,308.0,America/New_York,1973-01-01,2023-11-04,1948-01-01,2023-10-31,1948-01-01,2022-01-01,OH
Akron-Canton Regional Airport,US,OH,72521,KCAK,40.9167,-81.45,374.0,America/New_York,1973-01-01,2023-11-04,1948-07-01,2023-10-31,1948-01-01,2022-01-01,OH
Cleveland-Hopkins International,US,OH,72524,KCLE,41.4,-81.85,241.0,America/New_York,1973-01-01,2023-11-04,1938-05-01,2023-10-31,1938-01-01,2022-01-01,OH
Youngstown-Warren Reg Airprt,US,OH,72525,KYNG,41.25,-80.6667,365.0,America/New_York,1948-01-01,2023-11-04,1934-08-01,2023-10-31,1934-01-01,2022-01-01,OH
Toledo Express Airport,US,OH,72536,KTOL,41.5833,-83.8,208.0,America/New_York,1973-01-01,2023-11-04,1955-01-01,2023-10-31,1955-01-01,2022-01-01,OH
Dayton / Wright-Patterson Air Force Base,US,OH,74570,KFFO,39.8333,-84.05,251.0,America/New_York,1936-05-01,2023-11-04,1937-10-02,2022-04-25,1937-01-01,2022-01-01,OH
Findlay / West Park,US,OH,,KFDY,41.012,-83.6686,248.0,America/New_York,1973-01-01,2023-11-04,1973-01-01,2022-04-24,2000-01-01,2022-01-01,OH
Columbus / Lockbourne,US,OH,,KLCK,39.8138,-82.9278,227.0,America/New_York,1942-08-01,2023-11-04,1942-08-19,2022-04-24,1942-01-01,2021-01-01,OH
Cincinnati / Columbia,US,OH,,KLUK,39.1033,-84.4186,147.0,America/New_York,1973-01-01,2023-11-04,1973-01-01,2022-04-24,1999-01-01,2022-01-01,OH
Zanesville / Georgetown,US,OH,,KZZV,39.9444,-81.8921,274.0,America/New_York,1973-01-01,2023-11-04,1973-01-01,2022-04-24,2001-01-01,2021-01-01,OH
Altus Air Force Base,US,OK,72352,KLTS,34.65,-99.2667,420.0,America/Chicago,1943-02-01,2023-11-04,1943-02-02,2022-04-25,1943-01-01,2021-01-01,OK
Will Rogers World Airport,US,OK,72353,KOKC,35.3886,-97.6003,398.0,America/Chicago,1941-12-14,2023-11-04,1941-12-14,2023-10-31,1942-01-01,2022-01-01,OK
Tinker Air Force Base,US,OK,72354,KTIK,35.4167,-97.3833,394.0,America/Chicago,1942-12-14,2023-11-04,1942-12-15,2022-04-25,1943-01-01,2021-01-01,OK
Fort Sill,US,OK,72355,KFSI,34.6,-98.4,362.0,America/Chicago,1939-09-01,2023-11-04,1939-09-01,2022-04-25,1939-01-01,2021-01-01,OK
Tulsa International Airport,US,OK,72356,KTUL,36.2,-95.8881,206.0,America/Chicago,1947-01-01,2023-11-04,1938-12-01,2023-10-31,1938-01-01,2022-01-01,OK
"Woodward, West Woodward Airport",US,OK,74641,KWWR,36.4333,-99.5167,667.0,America/Chicago,2005-01-01,2023-11-04,1904-05-01,2023-10-31,1904-01-01,2022-01-01,OK
Hobart / Babbs,US,OK,,KHBR,34.9913,-99.0514,476.0,America/Chicago,1973-01-01,2023-11-04,1973-01-01,2022-04-23,1999-01-01,2022-01-01,OK
McAlester / Frink,US,OK,,KMLC,34.8824,-95.7835,235.0,America/Chicago,1953-07-01,2023-11-04,1953-07-02,2022-04-24,1953-01-01,2022-01-01,OK
Ponca City,US,OK,,KPNC,36.7319,-97.0998,307.0,America/Chicago,1946-08-01,2023-11-04,1946-08-02,2022-04-24,1946-01-01,2010-01-01,OK
Rogue Valley International  Airport,US,OR,72597,KMFR,42.3833,-122.8833,406.0,America/Los_Angeles,1973-01-01,2023-11-04,1928-01-01,2023-10-31,1928-01-01,2022-01-01,OR
Burns Municipal Airport,US,OR,72683,KBNO,43.6,-118.95,1263.0,America/Los_Angeles,1973-01-01,2023-11-04,1973-01-01,2023-10-31,1973-01-01,2022-01-01,OR
Pendleton Municipal Airport,US,OR,72688,KPDT,46.1667,-119.3833,455.0,America/Los_Angeles,1942-01-01,2023-11-04,1928-01-01,2023-10-30,1928-01-01,2022-01-01,OR
Edenbower,US,OR,72690,KRBG,43.23,-123.35,160.0,America/Los_Angeles,1980-05-14,2023-11-04,1997-06-26,2022-04-25,2005-01-01,2022-01-01,OR
North Bend,US,OR,72691,KOTH,43.4169,-124.247,5.0,America/Los_Angeles,1977-01-01,2023-11-04,1977-02-26,2022-04-25,1981-01-01,2022-01-01,OR
Robert Field Arpt / Redmond,US,OR,72692,,44.2539,-121.15,937.0,America/Los_Angeles,,,1948-05-01,2023-10-30,1948-01-01,2022-01-01,OR
Mahlon Sweet Field,US,OR,72693,KEUG,44.1333,-123.2167,111.0,America/Los_Angeles,1973-01-01,2023-11-04,1938-06-01,2023-10-31,1938-01-01,2022-01-01,OR
Salem McNary Field,US,OR,72694,KSLE,44.9,-123.0,64.0,America/Los_Angeles,1973-01-01,2023-11-04,1892-12-01,2023-10-31,1892-01-01,2022-01-01,OR
Portland International  Airport,US,OR,72698,KPDX,45.5833,-122.6,8.0,America/Los_Angeles,1936-05-01,2023-11-04,1936-05-01,2023-10-31,1936-01-01,2022-01-01,OR
Port Of Astoria Airport,US,OR,72791,KAST,46.15,-123.8833,3.0,America/Los_Angeles,1973-01-01,2023-11-04,1953-01-16,2023-10-31,1953-01-01,2022-01-01,OR
Baker / Estes (Historical),US,OR,,KBKE,44.8373,-117.8091,1028.0,America/Los_Angeles,1973-01-01,2023-11-04,1973-01-01,2022-04-24,2001-01-01,2022-01-01,OR
The Dalles / Dallesport,US,OR,,KDLS,45.6186,-121.1673,75.0,America/Los_Angeles,1973-01-01,2023-11-04,1973-01-01,2022-04-24,2001-01-01,2022-01-01,OR
La Grande / Island City,US,OR,,KLGD,45.2902,-118.0071,828.0,America/Los_Angeles,1988-05-06,2023-11-04,1992-03-02,2022-04-23,2005-01-01,2021-01-01,OR
Klamath Falls / Falcon Heights,US,OR,,KLMT,42.1561,-121.7332,1248.0,America/Los_Angeles,1959-09-01,2023-11-04,1959-09-02,2022-04-24,1959-01-01,2022-01-01,OR
Meacham,US,OR,,KMEH,45.5167,-118.4,1236.0,America/Los_Angeles,1973-01-01,2023-11-04,1973-01-01,2022-04-24,1977-01-01,2021-01-01,OR
Ontario / Cairo,US,OR,,KONO,44.0194,-117.013,668.0,America/Boise,1973-01-01,2023-11-04,1997-06-03,2022-04-24,2005-01-01,2021-01-01,OR
Redmond,US,OR,,KRDM,44.2541,-121.15,939.0,America/Los_Angeles,1942-01-01,2023-11-04,1942-01-02,2022-04-24,1943-01-01,2021-01-01,OR
Sexton Summit / Hugo,US,OR,,KSXT,42.6,-123.3667,1170.0,America/Los_Angeles,1973-01-01,2023-11-04,1973-01-04,2022-04-24,1979-01-01,2021-01-01,OR
Harrisburg,US,PA,72399,KMDT,40.1932,-76.7626,95.0,America/New_York,2005-01-01,2023-11-04,1941-01-01,2023-10-31,1941-01-01,2022-01-01,PA
Philadelphia International Airport,US,PA,72408,KPHL,39.8667,-75.2333,6.0,America/New_York,1973-01-01,2023-11-04,1940-07-01,2023-10-31,1940-01-01,2022-01-01,PA
Harrisburg / New Market,US,PA,72511,KCXY,40.2171,-76.8515,106.0,America/New_York,1991-01-01,2023-11-04,1939-01-01,2023-10-30,1939-01-01,2022-01-01,PA
Philipsburg / Beaver Mills,US,PA,72512,KPSB,40.8844,-78.0873,594.0,America/New_York,1985-05-31,1986-08-27,1985-06-08,2023-11-01,2002-01-01,2022-01-01,PA
Wilkes-Barre/Scranton International,US,PA,72513,KAVP,41.3333,-75.0667,293.0,America/New_York,1973-01-01,2023-11-04,1949-01-01,2023-10-31,1949-01-01,2022-01-01,PA
Williamsport-Lycoming County,US,PA,72514,KIPT,41.25,-76.9167,161.0,America/New_York,1973-01-01,2023-11-04,1901-01-30,2023-10-31,1948-01-01,2022-01-01,PA
Lehigh Valley International  Airport,US,PA,72517,KABE,40.65,-75.45,120.0,America/New_York,1973-01-01,2023-11-04,1948-01-01,2023-10-31,1948-01-01,2022-01-01,PA
Greater Pittsburgh International,US,PA,72520,KPIT,40.4833,-80.0667,367.0,America/New_York,1945-02-01,2023-11-04,1945-02-01,2023-11-01,1945-01-01,2022-01-01,PA
Erie International Airport,US,PA,72526,KERI,42.0833,-80.1833,223.0,America/New_York,1973-01-01,2023-11-04,1926-01-01,2023-10-31,1926-01-01,2022-01-01,PA
Altoona / Martinsburg,US,PA,,KAOO,40.2964,-78.32,458.0,America/New_York,1973-01-01,2023-11-04,1973-01-01,2022-04-24,1999-01-01,2022-01-01,PA
Bradford / Mount Alton,US,PA,,KBFD,41.8031,-78.6401,653.0,America/New_York,1973-01-01,2023-11-04,1973-01-01,2022-04-24,1981-01-01,2022-01-01,PA
Du Bois / Allens Mills,US,PA,,KDUJ,41.1783,-78.8987,554.0,America/New_York,1973-01-01,2023-11-04,1973-01-01,2022-04-24,2005-01-01,2022-01-01,PA
Franklin / Mapledale,US,PA,,KFKL,41.3779,-79.8604,469.0,America/New_York,1973-01-01,2023-11-04,1991-09-20,2022-04-24,2007-01-01,2022-01-01,PA
Johnstown / Wissingertown,US,PA,,KJST,40.3161,-78.8339,696.0,America/New_York,1973-01-01,2023-11-04,1991-03-23,2022-04-24,2005-01-01,2021-01-01,PA
Philadelphia / Ashton Wooden Bridge,US,PA,,KPNE,40.0819,-75.0106,37.0,America/New_York,1973-01-01,2023-11-04,1973-01-02,2022-04-24,2005-01-01,2021-01-01,PA
Providence Green State Airport,US,RI,72507,KPVD,41.7333,-71.4333,17.0,America/New_York,1942-08-01,2023-11-04,1942-08-01,2023-10-31,1942-01-01,2022-01-01,RI
Block Island / New Shoreham Center,US,RI,,KBID,41.1681,-71.5778,33.0,America/New_York,1990-01-01,2023-11-04,1990-01-01,2022-04-24,1990-01-01,2021-01-01,RI
Charleston Airport,US,SC,72208,KCHS,32.9,-80.0333,14.0,America/New_York,1945-01-01,2023-11-04,1937-03-01,2023-10-31,1937-01-01,2022-01-01,SC
Columbia Metropolitan Airport,US,SC,72310,KCAE,33.95,-81.1167,72.0,America/New_York,1942-04-24,2023-11-04,1942-04-24,2023-11-01,1942-01-01,2022-01-01,SC
Greer Greenville Spartburg,US,SC,72312,KGSP,34.8833,-82.05,296.0,America/New_York,1973-01-01,2023-11-04,1962-10-15,2023-10-31,1962-01-01,2022-01-01,SC
Anderson / Greenbriar,US,SC,72319,KAND,34.4946,-82.7094,238.0,America/New_York,1973-01-01,2023-11-04,1899-06-01,2023-10-29,1899-01-01,2022-01-01,SC
Shaw Air Force Base,US,SC,74790,KSSC,33.9667,-80.4833,74.0,America/New_York,1941-12-22,2023-11-04,1941-12-23,2022-04-25,1942-01-01,2022-01-01,SC
Myrtle Beach Air Force Base,US,SC,74791,KMYR,33.6833,-78.9333,8.0,America/New_York,1942-11-01,2023-11-04,1942-11-02,2022-04-25,1942-01-01,2022-01-01,SC
Florence / Malibu,US,SC,,KFLO,34.1854,-79.7239,45.0,America/New_York,1973-01-01,2023-11-04,1973-01-01,2022-04-24,1999-01-01,2021-01-01,SC
Greenville / Woods (Historical),US,SC,,KGMU,34.8479,-82.35,319.0,America/New_York,1942-09-08,2023-11-04,1942-09-09,2022-04-24,1942-01-01,2021-01-01,SC
Beaufort / Grays Hill,US,SC,,KNBC,32.4806,-80.7192,11.0,America/New_York,1945-04-01,2023-11-04,1945-04-02,2022-04-24,1945-01-01,2021-01-01,SC
Sioux Falls Foss Field,US,SD,72651,KFSD,43.5833,-96.75,436.0,America/Chicago,1942-10-01,2023-11-04,1932-01-01,2023-10-31,1932-01-01,2022-01-01,SD
"Pickstown, Sd.",US,SD,72652,,43.0667,-98.5333,453.0,America/Chicago,,,1948-01-01,2017-04-16,1948-01-01,2017-01-01,SD
Chamberlain Municipal Airport,US,SD,72653,K9V9,43.7667,-99.3167,517.0,America/Chicago,2006-01-01,2023-11-04,1998-02-01,2023-10-31,1998-01-01,2022-01-01,SD
Huron Regional Airport,US,SD,72654,KHON,44.3833,-98.2333,393.0,America/Chicago,1973-01-01,2023-11-04,1881-07-01,2023-10-31,1881-01-01,2022-01-01,SD
"Winner, Bob Wiley Field Airport",US,SD,72656,KSFD,43.3833,-99.8333,619.0,America/Chicago,,,1893-01-01,2023-10-31,1893-01-01,2022-01-01,SD
Aberdeen Regional Airport,US,SD,72659,KABR,45.45,-98.4167,397.0,America/Chicago,1973-01-01,2023-11-04,1893-01-01,2023-10-31,1893-01-01,2022-01-01,SD
Rapid City Regional Airport,US,SD,72662,KRAP,44.05,-103.05,976.0,America/Denver,1973-01-01,2023-11-04,1948-05-01,2023-10-31,1948-01-01,2022-01-01,SD
Watertown,US,SD,,KATY,44.914,-97.1547,533.0,America/Chicago,1948-01-01,2023-11-04,1948-01-24,2022-04-24,1948-01-01,2022-01-01,SD
Philip,US,SD,,KPHP,44.0486,-101.5991,673.0,America/Denver,1998-08-10,2023-11-04,1998-08-11,2022-04-24,2005-01-01,2022-01-01,SD
Pierre / Alto,US,SD,,KPIR,44.3827,-100.286,532.0,America/Chicago,1944-03-01,2023-11-04,1973-01-01,2022-04-24,1981-01-01,2020-01-01,SD
Lovell Field,US,TN,72324,KCHA,35.0333,-85.2,208.0,America/New_York,1973-01-01,2023-11-04,1938-04-01,2023-10-31,1938-01-01,2022-01-01,TN
Crossville / Howard Springs,US,TN,72325,KCSV,35.9513,-85.085,573.0,America/Chicago,2005-01-01,2023-11-04,1954-04-21,2023-10-31,1954-01-01,2022-01-01,TN
McGhee Tyson Airport,US,TN,72326,KTYS,35.8167,-83.9833,299.0,America/New_York,1948-01-01,2023-11-04,1910-01-01,2023-10-31,1910-01-01,2022-01-01,TN
Nashville Airport,US,TN,72327,KBNA,36.1167,-86.6833,183.0,America/Chicago,1951-01-01,2023-11-04,1948-01-01,2023-10-31,1948-01-01,2022-01-01,TN
Memphis International Airport,US,TN,72334,KMEM,35.0333,-89.9833,102.0,America/Chicago,1946-10-01,2023-11-04,1940-01-01,2023-10-31,1940-01-01,2022-01-01,TN
Bristol / Holston,US,TN,72335,KTRI,36.4752,-82.4074,463.0,America/New_York,1991-01-01,2023-11-04,1937-10-01,2023-10-31,1937-01-01,2022-01-01,TN
Jackson Square,US,TN,72427,,36.0231,-84.2331,263.0,America/New_York,,,1948-08-04,2023-10-31,1948-01-01,2022-01-01,TN
Dyersburg / South Dyersburg,US,TN,,KDYR,35.998,-89.4066,103.0,America/Chicago,1943-04-12,2023-11-04,1943-04-13,2022-04-24,1943-01-01,2022-01-01,TN
Jackson / Oak Grove,US,TN,,KMKL,35.5999,-88.9156,132.0,America/Chicago,1973-01-01,2023-11-04,1973-01-01,2022-04-24,1999-01-01,2021-01-01,TN
Abilene / Tye,US,TX,69019,KDYS,32.4198,-99.8554,545.0,America/Chicago,1943-12-01,2023-11-04,1943-12-02,2022-04-25,1944-01-01,1996-01-01,TX
Southeast Texas Rgnl Airport,US,TX,72241,KBPT,30.5833,-94.1333,5.0,America/Chicago,1973-01-01,2023-11-04,1947-10-01,2023-10-30,1947-01-01,2022-01-01,TX
Scholes Field,US,TX,72242,KGLS,29.2667,-94.8667,2.0,America/Chicago,1993-01-01,2023-11-04,1946-08-01,2023-10-31,1946-01-01,2022-01-01,TX
Houston Intercontinental,US,TX,72243,KIAH,30.0,-95.3667,30.0,America/Chicago,1973-01-01,2023-11-04,1969-06-01,2023-10-31,1969-01-01,2022-01-01,TX
Houston / Olcott,US,TX,72244,KEFD,29.6073,-95.1587,10.0,America/Chicago,1941-07-01,2023-11-04,1930-08-01,2023-10-31,1930-01-01,2022-01-01,TX
Longview Gregg County Airport,US,TX,72247,KGGG,32.3833,-94.7167,111.0,America/Chicago,1991-02-04,2023-11-04,1991-02-07,2023-10-31,1991-01-01,2022-01-01,TX
Fort Worth,US,TX,72249,KFWD,32.8333,-97.3,196.0,America/Chicago,,,1948-08-01,2023-10-31,1948-01-01,2022-01-01,TX
Brownsville/South Padre Is,US,TX,72250,KBRO,25.9,-97.4231,7.0,America/Chicago,1947-01-01,2023-11-04,1898-12-01,2023-10-31,1898-01-01,2022-01-01,TX
Corpus Christi International,US,TX,72251,KCRP,27.7667,-97.0167,13.0,America/Chicago,1946-08-01,2023-11-04,1946-08-01,2023-10-31,1946-01-01,2022-01-01,TX
"Laredo, Laredo International Airport",US,TX,72252,KLRD,27.5333,-99.45,155.0,America/Chicago,2008-11-24,2023-11-04,1965-03-15,2023-10-31,1965-01-01,2022-01-01,TX
San Antonio International  Airport,US,TX,72253,KSAT,29.5333,-98.4667,247.0,America/Chicago,1946-08-14,2023-11-04,1946-08-14,2023-10-31,1946-01-01,2022-01-01,TX
Camp Mabry/Austin City Asos,US,TX,72254,KATT,30.3167,-97.7667,201.0,America/Chicago,2000-01-01,2023-11-04,1938-06-01,2023-10-29,1938-01-01,2022-01-01,TX
Victoria Regional Airport,US,TX,72255,KVCT,28.8667,-96.1,35.0,America/Chicago,1941-11-04,2023-11-04,1941-11-04,2023-10-31,1953-01-01,2022-01-01,TX
Waco Regional Airport,US,TX,72256,KACT,31.6,-97.05,157.0,America/Chicago,1942-05-14,2023-11-04,1941-01-01,2023-10-31,1941-01-01,2022-01-01,TX
"Fort Hood, Hood Aaf Ft Hood",US,TX,72257,KHLR,31.1333,-97.7,282.0,America/Chicago,1960-11-01,2023-11-04,1960-11-01,2023-10-06,1961-01-01,2020-01-01,TX
Dallas / Oldham,US,TX,72258,KDAL,32.8471,-96.8518,148.0,America/Chicago,1946-07-26,2023-11-04,1939-08-01,2023-10-31,1939-01-01,2022-01-01,TX
Dallas/Ft. Worth International  Airport,US,TX,72259,KDFW,32.9,-97.0333,184.0,America/Chicago,1973-01-01,2023-11-04,1948-01-01,2023-10-06,1948-01-01,2022-01-01,TX
"Stephenville, Clark Field Municipal Airport",US,TX,72260,KSEP,32.2167,-98.1833,403.0,America/Chicago,1984-01-01,2023-11-03,1918-05-01,2023-11-01,1918-01-01,2022-01-01,TX
Del Rio International  Airport,US,TX,72261,KDRT,29.3667,-100.9167,304.0,America/Chicago,1946-08-09,2023-11-04,1946-08-09,2023-10-06,1946-01-01,2021-01-01,TX
Guadalupe Pass,US,TX,72262,KGDP,31.8333,-104.8167,1663.0,America/Chicago,1977-08-27,2023-11-04,1948-01-01,2023-10-31,1948-01-01,2022-01-01,TX
Mathis Field,US,TX,72263,KSJT,31.35,-100.5,584.0,America/Chicago,1948-02-15,2023-11-04,1907-08-01,2023-10-31,1907-01-01,2022-01-01,TX
Marfa,US,TX,72264,KMRF,30.3667,-104.0167,1478.0,America/Chicago,1936-12-01,2023-11-04,1942-12-02,2022-04-25,1943-01-01,2021-01-01,TX
Midland International Airport,US,TX,72265,KMAF,31.9333,-102.2,875.0,America/Chicago,1948-02-01,2023-11-04,1930-06-01,2023-10-31,1930-01-01,2022-01-01,TX
Abilene Regional Airport,US,TX,72266,KABI,32.4167,-99.6833,546.0,America/Chicago,1946-08-01,2023-11-04,1946-08-01,2023-10-31,1946-01-01,2022-01-01,TX
Lubbock International Airport,US,TX,72267,KLBB,33.6667,-101.8167,1000.0,America/Chicago,1945-08-10,2023-11-04,1945-08-10,2023-10-31,1946-01-01,2022-01-01,TX
El Paso International Airport,US,TX,72270,KELP,31.8167,-106.3833,1206.0,America/Denver,1941-04-01,2023-11-04,1938-04-01,2023-10-31,1938-01-01,2022-01-01,TX
Wichita Falls Sheppard Afb,US,TX,72351,KSPS,33.9833,-98.4928,309.0,America/Chicago,1942-04-13,2023-11-04,1897-01-01,2023-10-31,1897-01-01,2022-01-01,TX
Amarillo International  Airport,US,TX,72363,KAMA,35.2167,-101.7167,1099.0,America/Chicago,1943-03-01,2023-11-04,1943-03-01,2023-10-31,1943-01-01,2022-01-01,TX
Dalhart / Rehm,US,TX,74736,KDHT,36.0226,-102.5473,1217.0,America/Chicago,2005-01-01,2023-11-04,1948-12-10,2023-10-31,1949-01-01,2022-01-01,TX
Fort Worth / Sansom Park,US,TX,74739,KFTW,32.8198,-97.3624,216.0,America/Chicago,2005-01-01,2023-11-04,1946-09-02,2023-10-31,1946-01-01,2022-01-01,TX
Kimble County Airport,US,TX,74740,KJCT,30.5167,-99.7667,533.0,America/Chicago,1977-08-27,2023-11-04,1948-01-01,2023-10-31,1948-01-01,2022-01-01,TX
Austin / Del Valle,US,TX,74745,KAUS,30.1945,-97.6699,165.0,America/Chicago,1999-05-24,2023-11-04,1948-03-01,2023-10-30,1949-01-01,2022-01-01,TX
Bryan / Smetana,US,TX,74746,KCFD,30.6335,-96.4836,80.0,America/Chicago,2017-01-21,2023-11-04,1951-08-01,2023-10-31,1951-01-01,2022-01-01,TX
Alice / 665 Site Colonia,US,TX,,KALI,27.7409,-98.0269,54.0,America/Chicago,1946-08-01,2023-10-30,1946-08-02,2022-04-24,1946-01-01,2022-01-01,TX
Cotulla / Zamora Acres Colonia,US,TX,,KCOT,28.4567,-99.2183,145.0,America/Chicago,1973-01-01,2023-11-04,1973-01-02,2022-04-24,1981-01-01,2022-01-01,TX
Killeen / Fort Hood / Montague Village,US,TX,,KGRK,31.0673,-97.8289,309.0,America/Chicago,1950-09-26,2023-11-04,1950-09-27,2022-04-24,1950-01-01,2021-01-01,TX
Hondo,US,TX,,KHDO,29.3597,-99.1767,284.0,America/Chicago,1942-09-15,2023-11-04,1942-09-16,2022-04-24,1943-01-01,2021-01-01,TX
Harlingen / Santa Elena Colonia,US,TX,,KHRL,26.2285,-97.6544,11.0,America/Chicago,1942-03-01,2023-11-04,1942-03-02,2022-04-24,1942-01-01,2021-01-01,TX
Wink,US,TX,,KINK,31.7798,-103.2017,860.0,America/Chicago,1946-08-01,2023-11-04,1946-08-02,2022-04-24,1947-01-01,2022-01-01,TX
Lufkin / Burke,US,TX,,KLFK,31.234,-94.75,90.0,America/Chicago,1973-01-01,2023-11-04,1973-01-01,2022-04-24,1981-01-01,2022-01-01,TX
McAllen / Francis Addition Colonia,US,TX,,KMFE,26.1758,-98.2386,33.0,America/Chicago,1973-01-01,2023-11-04,1973-01-02,2022-04-24,1999-01-01,2022-01-01,TX
Mineral Wells / Sturdivant,US,TX,,KMWL,32.7816,-98.0602,297.0,America/Chicago,1948-03-10,2023-11-04,1948-03-10,2022-04-24,1948-01-01,2021-01-01,TX
Kingsville,US,TX,,KNQI,27.5045,-97.8083,15.0,America/Chicago,1973-01-01,2023-11-04,1973-01-01,2022-03-21,1981-01-01,2021-01-01,TX
Palacios / Camp Hulen,US,TX,,KPSX,28.7275,-96.2509,4.0,America/Chicago,1946-08-01,2023-11-04,1946-08-02,2022-04-24,1946-01-01,2021-01-01,TX
San Antonio / Universal City / Airport City,US,TX,,KRND,29.5289,-98.278,232.0,America/Chicago,1938-04-01,2023-11-04,1938-04-02,2022-04-25,1938-01-01,2021-01-01,TX
San Antonio / Lackland Air Force Base,US,TX,,KSKF,29.3842,-98.5812,210.0,America/Chicago,1937-07-07,2023-11-04,1937-08-26,2022-04-24,1937-01-01,2021-01-01,TX
San Antonio / Bergs Mill,US,TX,,KSSF,29.337,-98.471,176.0,America/Chicago,1999-01-01,2023-11-04,1999-01-01,2022-04-24,2002-01-01,2022-01-01,TX
Tyler / Chandler,US,TX,,KTYR,32.3541,-95.4024,166.0,America/Chicago,1973-01-01,2023-11-04,1973-01-02,2022-04-24,2000-01-01,2021-01-01,TX
Price Carbon County Airport,US,UT,72470,KPUC,39.6167,-110.75,1814.0,America/Denver,2006-01-01,2023-11-04,1998-09-10,2023-10-30,1998-01-01,2022-01-01,UT
Milford / Yellow Banks,US,UT,72475,KMLF,38.4266,-113.0125,1536.0,America/Denver,2005-01-01,2023-10-24,1928-01-01,2023-09-24,1928-01-01,2022-01-01,UT
Delta,US,UT,72479,KDTA,39.3806,-112.5077,1451.0,America/Denver,2014-08-20,2023-11-04,1938-06-01,2023-09-29,1938-01-01,2022-01-01,UT
Salt Lake City International  Airport,US,UT,72572,KSLC,40.7833,-111.9667,1288.0,America/Denver,1941-11-01,2023-11-04,1941-11-01,2023-10-31,1941-01-01,2022-01-01,UT
Ogden-Hinckley Airport,US,UT,72575,KOGD,41.2,-112.0167,1362.0,America/Denver,1973-01-01,2023-11-04,1948-01-01,2023-10-30,1948-01-01,2022-01-01,UT
Wendover / Air Force Auxillary Field,US,UT,72581,KENV,40.7333,-114.0333,1291.0,America/Denver,1942-08-01,2023-11-04,1911-05-25,2022-04-18,1911-01-01,2021-01-01,UT
Dugway Proving Grounds,US,UT,74003,KDPG,40.1667,-112.9333,1326.0,America/Denver,2006-01-03,2023-11-02,1949-12-07,2018-10-23,1950-01-01,1967-01-01,UT
Roosevelt,US,UT,74420,KU67,40.3,-109.9833,1553.0,America/Denver,,,1948-07-14,2023-10-31,1948-01-01,2022-01-01,UT
Bryce Canyon / Bryce Canyon City,US,UT,,KBCE,37.7064,-112.1458,2313.0,America/Denver,1973-01-01,2023-11-04,1973-01-01,2022-04-24,2005-01-01,2021-01-01,UT
Cedar City,US,UT,,KCDC,37.701,-113.0988,1714.0,America/Denver,1973-01-01,2023-11-04,1973-01-01,2022-04-24,1981-01-01,2022-01-01,UT
Norfolk International Airport,US,VA,72308,KORF,36.9,-76.2,8.0,America/New_York,1973-01-01,2023-11-04,1946-01-01,2023-10-31,1946-01-01,2022-01-01,VA
Richmond International  Airport,US,VA,72401,KRIC,37.5167,-77.3167,51.0,America/New_York,1942-09-24,2023-11-04,1939-03-01,2023-10-31,1939-01-01,2022-01-01,VA
Wallops Flight Fac Airport,US,VA,72402,KWAL,37.9333,-75.4667,12.0,America/New_York,1973-01-01,2023-11-04,1966-10-01,2023-10-31,1966-01-01,2022-01-01,VA
Dulles International Airport,US,VA,72403,KIAD,38.9333,-77.45,95.0,America/New_York,1973-01-01,2023-11-04,1960-04-01,2023-10-31,1961-01-01,2022-01-01,VA
Lynchburg Regional Airport,US,VA,72410,KLYH,37.3167,-79.2,286.0,America/New_York,1973-01-01,2023-11-04,1944-08-01,2023-10-31,1944-01-01,2022-01-01,VA
Roanoke Regional Airport,US,VA,72411,KROA,37.3167,-79.9667,358.0,America/New_York,1973-01-01,2023-11-04,1948-01-01,2023-10-31,1948-01-01,2022-01-01,VA
Langley Air Force Base,US,VA,74598,KLFI,37.0833,-76.35,3.0,America/New_York,1936-10-01,2023-11-04,1918-11-01,2022-04-25,1918-01-01,2021-01-01,VA
Ft Pickett / Blackstone,US,VA,,KBKT,37.0743,-77.9573,133.0,America/New_York,1943-06-01,2023-11-04,1943-06-02,2022-04-25,2020-01-01,2022-01-01,VA
Charlottesville / Deerwood,US,VA,,KCHO,38.1386,-78.4529,195.0,America/New_York,1973-01-01,2023-11-04,1973-01-02,2022-04-24,2005-01-01,2022-01-01,VA
Danville / Green Acres,US,VA,,KDAN,36.5729,-79.3361,174.0,America/New_York,1973-01-01,2023-11-03,1994-06-10,2022-04-24,2004-01-01,2022-01-01,VA
Fort Eustis / Hoopes Landing,US,VA,,KFAF,37.1325,-76.6088,3.0,America/New_York,1960-11-01,2023-11-04,1960-11-02,2022-04-24,1960-01-01,2020-01-01,VA
Franklin / Lees Mill,US,VA,,KFKN,36.6981,-76.9038,12.0,America/New_York,1994-10-16,2023-11-04,1994-10-30,2022-04-24,2010-01-01,2022-01-01,VA
Virginia Beach / Gatewood Park,US,VA,,KNTU,36.8227,-76.0319,7.0,America/New_York,1973-01-01,2023-11-04,1973-01-01,2022-04-24,1974-01-01,2021-01-01,VA
Quantico,US,VA,,KNYG,38.5036,-77.305,3.0,America/New_York,1973-01-01,2023-11-04,1973-01-02,2022-04-24,1984-01-01,2021-01-01,VA
Dublin / Highland Park,US,VA,,KPSK,37.1373,-80.6785,642.0,America/New_York,1994-08-18,2023-11-04,1994-08-31,2022-04-24,2010-01-01,2022-01-01,VA
Newport,US,VT,72612,K9B2,44.9333,-72.2,233.0,America/New_York,,,1930-02-01,2023-02-02,1930-01-01,2022-01-01,VT
St Johnsbury Fairbanks,US,VT,72614,K1V4,44.4167,-72.0167,212.0,America/New_York,1973-01-01,2023-11-04,1894-03-01,2023-10-31,1894-01-01,2022-01-01,VT
Burlington International,US,VT,72617,KBTV,44.4667,-73.15,102.0,America/New_York,1948-01-01,2023-11-04,1940-12-01,2023-10-31,1940-01-01,2022-01-01,VT
Montpelier / Berlin Corners,US,VT,,KMPV,44.2035,-72.5623,355.0,America/New_York,1973-01-01,2023-11-04,1973-01-02,2022-04-24,1999-01-01,2022-01-01,VT
Whidbey Island / Ault Field,US,WA,69023,KNUW,48.3518,-122.656,14.0,America/Los_Angeles,2005-01-01,2023-11-04,1945-04-01,2022-04-24,1945-01-01,2022-01-01,WA
Yakima Air Terminal,US,WA,72781,KYKM,46.5667,-120.5333,334.0,America/Los_Angeles,1973-01-01,2023-11-04,1946-09-06,2023-10-30,1946-01-01,2022-01-01,WA
Spokane International Airport,US,WA,72785,KGEG,47.6167,-117.5333,723.0,America/Los_Angeles,1941-08-11,2023-11-04,1889-08-01,2023-10-31,1889-01-01,2022-01-01,WA
Deer Park / T Bridge Corner,US,WA,72787,,47.9689,-117.4211,654.0,America/Los_Angeles,,,1998-11-01,2023-10-31,1998-01-01,2022-01-01,WA
Ephrata / Lakeview,US,WA,72790,KEPH,47.3081,-119.5169,389.0,America/Los_Angeles,1942-01-01,2023-11-04,1942-01-02,2023-10-31,1942-01-01,2022-01-01,WA
Olympia Airport,US,WA,72792,KOLM,46.9667,-122.9,63.0,America/Los_Angeles,1973-01-01,2023-11-04,1941-05-13,2023-10-31,1941-01-01,2022-01-01,WA
Seattle-Tacoma Airport,US,WA,72793,KSEA,47.45,-122.3167,131.0,America/Los_Angeles,1948-01-01,2023-11-04,1948-01-01,2023-10-31,1948-01-01,2022-01-01,WA
Quillayute State Airport,US,WA,72797,KUIL,47.9333,-124.5667,59.0,America/Los_Angeles,1973-01-01,2023-11-04,1966-08-01,2023-10-31,1966-01-01,2022-01-01,WA
Tacoma / McChord Air Force Base,US,WA,74206,KTCM,47.15,-122.4833,98.0,America/Los_Angeles,1940-07-22,2023-11-04,1940-07-23,2022-04-25,1940-01-01,2022-01-01,WA
Fort Lewis / Gray U. S. Army Airfield,US,WA,74207,KGRF,47.1167,-122.55,92.0,America/Los_Angeles,1939-04-01,2023-11-04,1939-04-02,2022-04-25,1939-01-01,2022-01-01,WA
Seattle / South Park,US,WA,,KBFI,47.53,-122.302,6.0,America/Los_Angeles,1943-10-01,2023-11-04,1943-10-02,2022-04-24,1944-01-01,2022-01-01,WA
Bellingham / Marietta-Alderwood,US,WA,,KBLI,48.7927,-122.5375,52.0,America/Los_Angeles,1948-01-01,2023-11-04,1948-01-02,2022-04-24,1948-01-01,2022-01-01,WA
Ellensburg,US,WA,,KELN,47.033,-120.5307,538.0,America/Los_Angeles,1988-01-06,2023-11-04,1998-10-07,2022-04-24,2005-01-01,2021-01-01,WA
Moses Lake / Moses Lake North,US,WA,,KMWH,47.2086,-119.3191,362.0,America/Los_Angeles,1943-06-10,2023-11-04,1943-06-11,2022-04-24,1943-01-01,2022-01-01,WA
Pasco,US,WA,,KPSC,46.2647,-119.119,125.0,America/Los_Angeles,1973-01-01,2023-11-04,1998-02-01,2022-04-24,2005-01-01,2021-01-01,WA
Shelton / Hidden Haven Mobile Home Park,US,WA,,KSHN,47.2336,-123.1476,83.0,America/Los_Angeles,1999-01-01,2023-11-04,1999-01-01,2022-04-24,2002-01-01,2022-01-01,WA
Spokane / Fairchild Air Force Base,US,WA,,KSKA,47.6151,-117.6558,750.0,America/Los_Angeles,1940-04-01,2023-11-04,1940-04-02,2022-04-24,1940-01-01,2021-01-01,WA
Gen Mitchell International Airport,US,WI,72640,KMKE,42.955,-87.9044,211.0,America/Chicago,1948-01-01,2023-11-04,1938-04-01,2023-10-31,1938-01-01,2022-01-01,WI
Madison Dane County Rgnl,US,WI,72641,KMSN,43.1333,-89.0167,263.0,America/Chicago,1948-01-01,2023-11-04,1939-10-01,2023-10-31,1939-01-01,2022-01-01,WI
La Crosse Municipal Airport,US,WI,72643,KLSE,43.8833,-91.25,199.0,America/Chicago,1948-01-01,2023-11-04,1938-04-01,2023-10-31,1938-01-01,2022-01-01,WI
Austin Straubel International  Airport,US,WI,72645,KGRB,44.4833,-88.1333,212.0,America/Chicago,1950-01-01,2023-11-04,1886-09-01,2023-10-31,1886-01-01,2022-01-01,WI
Wausau / Wausau Junction,US,WI,72646,KAUW,44.9263,-89.627,366.0,America/Chicago,1990-03-14,2023-11-04,1941-12-01,2023-10-31,1941-01-01,2022-01-01,WI
Park Falls,US,WI,72741,KPKF,45.9333,-90.45,462.0,America/Chicago,1973-01-01,2001-02-03,1910-05-01,2023-11-01,1910-01-01,2021-01-01,WI
Eau Claire County / Pinehurst,US,WI,,KEAU,44.8658,-91.4843,278.0,America/Chicago,1973-01-01,2023-11-04,1973-01-01,2022-04-24,1973-01-01,2022-01-01,WI
Fond Du Lac / Fond Du Lac,US,WI,,KFLD,43.7712,-88.4884,246.0,America/Chicago,1999-01-01,2023-11-04,1999-01-01,2022-04-24,2005-01-01,2022-01-01,WI
Volk / Camp Douglas,US,WI,,KVOK,43.9392,-90.2532,278.0,America/Chicago,1961-10-01,2023-11-04,1962-10-25,2022-04-22,1966-01-01,2021-01-01,WI
Raleigh County Mem Airport,US,WV,72412,KBKW,37.8,-81.1167,763.0,America/New_York,1973-01-01,2023-11-04,1963-05-15,2023-10-31,1963-01-01,2022-01-01,WV
Yeager Airport,US,WV,72414,KCRW,38.3667,-81.6,299.0,America/New_York,1973-01-01,2023-11-04,1947-12-01,2023-10-31,1947-01-01,2022-01-01,WV
Jennings Randolph Field,US,WV,72417,KEKN,38.8833,-79.85,606.0,America/New_York,1973-01-01,2023-11-04,1926-01-01,2023-10-31,1926-01-01,2022-01-01,WV
Tri-State Airport,US,WV,72425,KHTS,38.3667,-82.55,252.0,America/New_York,1973-01-01,2023-11-04,1961-01-04,2023-10-31,1961-01-01,2022-01-01,WV
Morgantown / Easton,US,WV,,KMGW,39.6429,-79.9163,379.0,America/New_York,1973-01-01,2023-11-04,1973-01-01,2022-04-24,1974-01-01,2021-01-01,WV
Martinsburg / Grubbs Corner,US,WV,,KMRB,39.4019,-77.9847,172.0,America/New_York,1973-01-01,2023-11-04,1973-01-01,2022-04-24,2001-01-01,2022-01-01,WV
Parkersburg / Parkeresburg [Misspelling] / Brierwood,US,WV,,KPKB,39.3451,-81.4392,262.0,America/New_York,1990-02-08,2023-11-04,1990-02-09,2022-04-24,2001-01-01,2022-01-01,WV
Cheyenne Airport,US,WY,72564,KCYS,41.15,-104.8,1878.0,America/Denver,1948-01-01,2023-11-04,1915-01-01,2023-10-30,1915-01-01,2022-01-01,WY
Natrona County International  Airport,US,WY,72569,KCPR,42.9,-106.4667,1630.0,America/Denver,1940-01-01,2023-11-04,1940-01-01,2023-10-31,1940-01-01,2022-01-01,WY
Rock Springs-Sweetwater Co,US,WY,72574,KRKS,41.6,-109.05,2060.0,America/Denver,1991-01-01,2023-11-04,1991-01-01,2023-11-01,1991-01-01,2022-01-01,WY
Lander Hunt Field,US,WY,72576,KLND,42.8167,-108.7333,1703.0,America/Denver,1973-01-01,2023-11-04,1948-01-01,2023-10-31,1948-01-01,2022-01-01,WY
Gillette-Campbell Cty Airport,US,WY,72665,KGCC,44.3333,-105.55,1330.0,America/Denver,2006-01-01,2023-11-04,1998-07-15,2023-10-28,1998-01-01,2022-01-01,WY
Sheridan County Airport,US,WY,72666,KSHR,44.7667,-106.9667,1226.0,America/Denver,1973-01-01,2023-11-04,1948-01-01,2023-10-31,1948-01-01,2022-01-01,WY
Rawlins / Sinclair,US,WY,72669,KRWL,41.8056,-107.1999,2078.0,America/Denver,2010-08-01,2023-11-04,1951-03-06,2023-10-30,1951-01-01,2022-01-01,WY
Big Piney-Marbleton Airport,US,WY,72671,KBPI,42.5833,-110.1,2131.0,America/Denver,1999-01-01,2023-11-04,1998-02-26,2023-10-31,1998-01-01,2022-01-01,WY
Evanston,US,WY,,KEVW,41.2748,-111.0346,2177.0,America/Denver,1973-01-01,2023-11-04,1973-01-01,2022-04-24,2005-01-01,2022-01-01,WY
Yellowstone / Lake,US,WY,,KP60,44.55,-110.4167,2368.0,America/Denver,1979-03-22,2023-11-04,1980-11-10,2022-03-15,2001-01-01,2021-01-01,WY
